station_uuid,original_station_id,latitude,longitude,station_name,city,zip_code_uuid
e3e70682-c209-4cac-629f-6fbed82c07cd,3005.0,34.0485,-118.258537,,Los Angeles,5bc8fbbc-bde5-c099-4164-d8399f767c45
f728b4fa-4248-5e3a-0a5d-2f346baa9455,3006.0,34.04554,-118.256668,,Los Angeles,5bc8fbbc-bde5-c099-4164-d8399f767c45
eb1167b3-67a9-c378-7c65-c1e582e2e662,3007.0,34.05048,-118.254593,,Los Angeles,d76d4330-f144-6bea-b0c1-1fdecb91ce37
f7c1bd87-4da5-e709-d471-3d60c8a70639,3008.0,34.046612,-118.262733,,Los Angeles,5bc8fbbc-bde5-c099-4164-d8399f767c45
e443df78-9558-867f-5ba9-1faf7a024204,3010.0,34.037048,-118.254868,,Los Angeles,87b0b125-ec1d-7da0-a6eb-8c9ebd69fe29
23a7711a-8133-2876-37eb-dcd9e87a1613,3011.0,34.04113,-118.267982,,Los Angeles,c6a53877-7733-0bdb-d721-0dff076ce2ef
1846d424-c17c-6279-23c6-612f48268673,3014.0,34.05661,-118.237213,,Los Angeles,0d464138-a623-3255-3fc1-ea36f17fd374
fcbd04c3-4021-2ef7-cca5-a5a19e4d6e3c,3016.0,34.052898,-118.241562,,Los Angeles,5f2dd97f-1cfb-10f6-2827-688de6a16a3b
b4862b21-fb97-d435-8856-1712e8e5216a,3018.0,34.043732,-118.260139,,Los Angeles,c6a53877-7733-0bdb-d721-0dff076ce2ef
259f4329-e6f4-590b-9a16-4106cf6a659e,3019.0,34.038609,-118.260857,,Los Angeles,c6a53877-7733-0bdb-d721-0dff076ce2ef
12e0c8b2-bad6-40fb-1948-8dec4f65d4d9,3020.0,34.031052,-118.26709,,Los Angeles,617959ce-3f1f-65a8-de52-71007814e8a2
5487ce1e-af19-922a-d9b8-a714e61a441c,3022.0,34.04607,-118.233093,,Los Angeles,5f2dd97f-1cfb-10f6-2827-688de6a16a3b
5a921187-19c7-8df4-8f4f-f31e78de5857,3024.0,34.05772,-118.24897,,Los Angeles,d76d4330-f144-6bea-b0c1-1fdecb91ce37
a3f2c9bf-9c63-16b9-50f2-44556f25e2a2,3025.0,34.03286,-118.268082,,Los Angeles,617959ce-3f1f-65a8-de52-71007814e8a2
8d723104-f773-83c1-3458-a748e9bb17bc,3026.0,34.063179,-118.24588,,Los Angeles,0d464138-a623-3255-3fc1-ea36f17fd374
85776e9a-dd84-f39e-7154-5a137a1d5006,3027.0,34.04998,-118.247162,,Los Angeles,d76d4330-f144-6bea-b0c1-1fdecb91ce37
eb2083e6-ce16-4dba-0ff1-8e0242af9fc3,3028.0,34.058319,-118.246094,,Los Angeles,0d464138-a623-3255-3fc1-ea36f17fd374
17e0aa3c-0398-3ca8-ea7e-9d498c778ea6,3030.0,34.051941,-118.24353,,Los Angeles,5f2dd97f-1cfb-10f6-2827-688de6a16a3b
b5d32b16-6619-4cb1-d710-37d1b83e90ec,3031.0,34.044701,-118.252441,,Los Angeles,87b0b125-ec1d-7da0-a6eb-8c9ebd69fe29
a0116be5-ab0c-1681-c8f8-e3d0d3290a4c,3032.0,34.049889,-118.255882,,Los Angeles,5bc8fbbc-bde5-c099-4164-d8399f767c45
d3fbf47a-7e5b-1e7f-9ca5-499d004ae545,3033.0,34.040989,-118.255798,,Los Angeles,c6a53877-7733-0bdb-d721-0dff076ce2ef
baf3897a-3e70-f16a-5548-5822de1b372a,3034.0,34.042061,-118.263382,,Los Angeles,c6a53877-7733-0bdb-d721-0dff076ce2ef
101fbccc-ded7-33e8-b421-eaeb534097ca,3035.0,34.048401,-118.260948,,Los Angeles,5bc8fbbc-bde5-c099-4164-d8399f767c45
38c1962e-9148-624f-eac1-c14f30e9c5cc,3036.0,34.039188,-118.232529,,Los Angeles,3fd42359-92ed-cf45-1a1a-fe878b33e968
247a8333-f7b0-b7d2-cda8-056c3d15eef7,3037.0,34.034801,-118.231277,,Los Angeles,3fd42359-92ed-cf45-1a1a-fe878b33e968
1759edc3-72ae-2244-8b01-63c1cd9d2b7d,3040.0,34.05357,-118.266357,,Los Angeles,5bc8fbbc-bde5-c099-4164-d8399f767c45
e005b860-51ef-1922-fe43-c49e149818d1,3042.0,34.049301,-118.238808,,Los Angeles,5f2dd97f-1cfb-10f6-2827-688de6a16a3b
7d41e602-eece-328b-ff7b-118e820865d6,3045.0,34.028511,-118.256668,,Los Angeles,617959ce-3f1f-65a8-de52-71007814e8a2
4a84eb03-8d1f-d9b7-4d2b-9deb1beb3711,3046.0,34.052872,-118.24749,,Los Angeles,d76d4330-f144-6bea-b0c1-1fdecb91ce37
552f233a-8c25-166a-1ff3-9849b4e1357d,3047.0,34.039982,-118.266403,,Los Angeles,c6a53877-7733-0bdb-d721-0dff076ce2ef
3405095c-8a50-06c1-ec18-8efbd080e66e,3048.0,34.041691,-118.235352,,Los Angeles,5f2dd97f-1cfb-10f6-2827-688de6a16a3b
8c1745a7-9a6a-5f92-cca7-4147f6be1f72,3049.0,34.056969,-118.253593,,Los Angeles,d76d4330-f144-6bea-b0c1-1fdecb91ce37
1775336d-71ea-cd05-49a3-e80e966e1277,3052.0,34.051102,-118.264557,,Los Angeles,5bc8fbbc-bde5-c099-4164-d8399f767c45
5129fb7c-6288-e1a5-cc45-782198a6416d,3054.0,34.039219,-118.236488,,Los Angeles,3fd42359-92ed-cf45-1a1a-fe878b33e968
2f120554-4a53-08cc-3dfa-bc08935ddd72,3056.0,34.03746,-118.265381,,Los Angeles,c6a53877-7733-0bdb-d721-0dff076ce2ef
0870e15c-2fcd-81b5-d24b-ace4307bf326,3058.0,34.035801,-118.23317,,Los Angeles,3fd42359-92ed-cf45-1a1a-fe878b33e968
42930b33-a81a-d477-fb36-75b89cdeb3e6,3062.0,34.047749,-118.243172,,Los Angeles,5f2dd97f-1cfb-10f6-2827-688de6a16a3b
adc0da7a-16fe-baa0-11af-923d79fdef7c,3063.0,34.048038,-118.253738,,Los Angeles,d76d4330-f144-6bea-b0c1-1fdecb91ce37
2648ee38-e074-05eb-2156-63abc1f254b8,3064.0,34.046131,-118.257591,,Los Angeles,5bc8fbbc-bde5-c099-4164-d8399f767c45
148b2758-d7ab-7928-09e4-69e6ec62b2c8,3065.0,34.060558,-118.238327,,Los Angeles,0d464138-a623-3255-3fc1-ea36f17fd374
d450fe4a-ec4f-217b-b306-d1a8e5eeac76,3066.0,34.063389,-118.23616,,Los Angeles,0d464138-a623-3255-3fc1-ea36f17fd374
d67e55fd-642b-fa42-aef9-c00b8a64c1b9,3068.0,34.0532,-118.250954,,Los Angeles,d76d4330-f144-6bea-b0c1-1fdecb91ce37
85940927-468f-f53d-864a-7a50b48d73f1,3069.0,34.05088,-118.248253,,Los Angeles,d76d4330-f144-6bea-b0c1-1fdecb91ce37
37176e84-d977-e993-3c49-d76fcfc6e625,3074.0,34.04417,-118.261169,,Los Angeles,c6a53877-7733-0bdb-d721-0dff076ce2ef
d3447490-96fd-35d0-adf2-0806e5214606,3075.0,34.04211,-118.256187,,Los Angeles,c6a53877-7733-0bdb-d721-0dff076ce2ef
46743741-9466-e472-6b5f-5241f323ca74,3076.0,34.0406,-118.253838,,Los Angeles,87b0b125-ec1d-7da0-a6eb-8c9ebd69fe29
a425799a-a905-d750-7e1e-a9c573581a81,3077.0,34.039871,-118.250038,,Los Angeles,87b0b125-ec1d-7da0-a6eb-8c9ebd69fe29
fb82860d-eabc-a8d0-b341-facdff0ac0f1,3078.0,34.064281,-118.238937,,Los Angeles,0d464138-a623-3255-3fc1-ea36f17fd374
5306f3f5-1516-6570-5b7c-709acb175a5a,3079.0,34.05014,-118.233192,,Los Angeles,5f2dd97f-1cfb-10f6-2827-688de6a16a3b
964a870c-7c87-9b74-1d87-8f9f9cdf5a86,3081.0,34.031891,-118.250183,,Los Angeles,87b0b125-ec1d-7da0-a6eb-8c9ebd69fe29
30bcab0e-d857-0102-55d4-4936a1515607,3082.0,34.04652,-118.237411,,Los Angeles,5f2dd97f-1cfb-10f6-2827-688de6a16a3b
4562be7f-bb42-e0b2-0426-465e3e37952d,4202.0,33.991161,-118.468292,,Los Angeles,687c966c-377b-9aa2-bb2e-db20035b7399
5f3f5638-3870-1a14-b490-b6081dfc8352,4204.0,33.988419,-118.45163,,Los Angeles,687c966c-377b-9aa2-bb2e-db20035b7399
6d16ee18-5521-16dd-2ba4-b180cb69ca38,4205.0,33.993771,-118.453667,,Los Angeles,687c966c-377b-9aa2-bb2e-db20035b7399
c87a7463-19c1-6a0d-0feb-d845d0dfae43,4206.0,33.998341,-118.461014,,Los Angeles,687c966c-377b-9aa2-bb2e-db20035b7399
38018b47-b29a-8b06-daf6-6c5f2577bffa,4207.0,34.000881,-118.46891,,Los Angeles,de11cc9d-ea95-9c21-2e9c-82b1478c281d
a25b59fd-92e8-e269-d12e-cbc40b9475b1,4208.0,33.99868,-118.472977,,Los Angeles,687c966c-377b-9aa2-bb2e-db20035b7399
9a27d858-88c1-32ad-efbf-c19ee8f6cf32,4209.0,33.996239,-118.477448,,Los Angeles,687c966c-377b-9aa2-bb2e-db20035b7399
1fdb8b32-06d5-99e8-12f1-75ffae3b16ec,4210.0,33.984341,-118.47155,,Los Angeles,c30d8b76-28db-d25e-63b2-29f1c4069545
d480865f-9b38-fe80-3042-e325a28f5ab0,4211.0,33.984928,-118.469963,,Los Angeles,c30d8b76-28db-d25e-63b2-29f1c4069545
176ea1b1-6426-4cd5-1ea4-5cd69371a71f,4212.0,33.988129,-118.471741,,Los Angeles,687c966c-377b-9aa2-bb2e-db20035b7399
1db53334-fb03-23a1-d576-d4155ec17dbe,4213.0,33.995369,-118.464798,,Los Angeles,687c966c-377b-9aa2-bb2e-db20035b7399
31d0b664-0589-f877-9b02-52440950fd13,4214.0,33.99556,-118.481552,,Los Angeles,9e30691c-2386-42ea-126a-1e48cc11d357
b7d6467b-2f5a-522a-f87f-43fdf6062541,4215.0,34.014309,-118.491341,,Los Angeles,9e30691c-2386-42ea-126a-1e48cc11d357
ba26d851-35e8-579a-7aaf-0e891fb797fa,4216.0,34.023392,-118.479637,,Los Angeles,21da8978-206f-5c66-71e0-c07e9e115e4b
ade9b2b4-efdd-35f8-0fa3-4266ccfdba9b,4217.0,34.04031,-118.25827,,Los Angeles,c6a53877-7733-0bdb-d721-0dff076ce2ef
9edfa3da-6cf5-5b15-8b53-031d05d51433,4220.0,34.074829,-118.258728,,Los Angeles,015c33b2-df14-61aa-f8eb-18b900745130
11ebcd49-428a-1c22-d5fd-b76a19fbeb1d,4227.0,34.0298,-118.270309,,Los Angeles,617959ce-3f1f-65a8-de52-71007814e8a2
4d125e7f-a59c-ec98-126c-bc8f38884479,4245.0,34.02404,-118.283409,,Los Angeles,f5cae3bf-3729-c619-c60a-3cab359eeefb
0fa07a3f-2e29-5065-6fa2-31e959acdd98,4246.0,34.023708,-118.279167,,Los Angeles,f5cae3bf-3729-c619-c60a-3cab359eeefb
98b33c6e-0a14-b90a-7795-e98680ee526e,4247.0,34.033642,-118.291313,,Los Angeles,2a9eba0c-df56-1d80-2a75-9159fb7ff337
642aad48-fcfc-fa81-b306-d70019d5f970,4248.0,34.028351,-118.288673,,Los Angeles,f5cae3bf-3729-c619-c60a-3cab359eeefb
e786ab37-5bca-47be-4298-17c53308fb2e,4249.0,34.020302,-118.281181,,Los Angeles,f5cae3bf-3729-c619-c60a-3cab359eeefb
e6fd68e8-d69c-91c2-7860-1602bb4a06cb,4250.0,34.03017,-118.280952,,Los Angeles,f5cae3bf-3729-c619-c60a-3cab359eeefb
b29c467d-2b5f-6932-91dc-59efeb21a3f6,4254.0,34.028679,-118.284111,,Los Angeles,f5cae3bf-3729-c619-c60a-3cab359eeefb
c470f0e7-f76f-bfb8-3412-fc12ac322c12,4255.0,33.97366,-118.422859,,Los Angeles,32ea6928-f623-6bf2-504b-74ba4a0fe75d
28805c5d-ad1b-8f60-c9e4-dab20edc6d2b,4266.0,34.026291,-118.277687,,Los Angeles,f5cae3bf-3729-c619-c60a-3cab359eeefb
878b9f6b-57a1-cb71-2975-d279d86dbf11,4267.0,34.027618,-118.280678,,Los Angeles,f5cae3bf-3729-c619-c60a-3cab359eeefb
ebe21368-98c7-5205-1e01-a934402d0baf,4273.0,34.02586,-118.284103,,Los Angeles,f5cae3bf-3729-c619-c60a-3cab359eeefb
0361524c-2cc0-f859-aa65-24ab713b7e05,4275.0,34.01252,-118.285896,,Los Angeles,f5cae3bf-3729-c619-c60a-3cab359eeefb
e66cd36e-68ef-8f5f-ae68-690a78bc7175,4293.0,34.062279,-118.271523,,Los Angeles,a02fdaa1-ad86-4c44-e049-548e8a0a8c96
eae2025e-8233-9e23-dff3-334b91b15f5d,4300.0,34.04887,-118.2743,,Los Angeles,a02fdaa1-ad86-4c44-e049-548e8a0a8c96
637e0edc-5b6e-4ae7-a620-81434fbaecc0,4301.0,34.099049,-118.291496,,Los Angeles,f7f35634-f0e3-cd97-2e81-d66d346c6e2b
27460f22-403d-1f83-a859-890cd670f668,4302.0,34.092491,-118.291443,,Los Angeles,f7f35634-f0e3-cd97-2e81-d66d346c6e2b
753c7c99-032f-06ca-b0d9-c2aa8f837ef7,4303.0,34.098011,-118.287071,,Los Angeles,f7f35634-f0e3-cd97-2e81-d66d346c6e2b
bd30291a-55fe-a08e-143e-2e04bdd7d19b,4304.0,34.06258,-118.290092,,Los Angeles,2a9eba0c-df56-1d80-2a75-9159fb7ff337
2284b7a4-47e7-f593-8b58-85ca0bb2c3f0,4306.0,34.057652,-118.292183,,Los Angeles,2a9eba0c-df56-1d80-2a75-9159fb7ff337
7b59051b-f400-48d7-c31d-5a973d792fa1,4311.0,34.059689,-118.294662,,Los Angeles,2a9eba0c-df56-1d80-2a75-9159fb7ff337
ac642b4c-49b2-5ded-9c31-d9b25a2b745b,4313.0,34.056808,-118.275002,,Los Angeles,a02fdaa1-ad86-4c44-e049-548e8a0a8c96
e456697c-f268-6baa-971c-702d5bf49c04,4314.0,34.057709,-118.279762,,Los Angeles,a02fdaa1-ad86-4c44-e049-548e8a0a8c96
21e15094-9efe-e464-da90-f534a23d4c9d,4315.0,34.054031,-118.27092,,Los Angeles,a02fdaa1-ad86-4c44-e049-548e8a0a8c96
bf9cc545-6355-18f7-4f6f-a985b732d46f,4387.0,34.03352,-118.241837,,Los Angeles,3fd42359-92ed-cf45-1a1a-fe878b33e968
14aa451c-a69c-fb85-d432-f8db6a174c1c,4390.0,34.069271,-118.296593,,Los Angeles,f7108e96-f770-c226-3266-aa3bb0cde917
b2d650af-313b-32b7-9836-31890063e42f,4401.0,34.075611,-118.291862,,Los Angeles,f7f35634-f0e3-cd97-2e81-d66d346c6e2b
391cf046-3d4a-5d51-28fa-fd04559b5975,4404.0,34.04813,-118.271027,,Los Angeles,5bc8fbbc-bde5-c099-4164-d8399f767c45
b5d97ef7-60ef-1471-72b8-ff39a32c9b6f,4405.0,34.051899,-118.293678,,Los Angeles,2a9eba0c-df56-1d80-2a75-9159fb7ff337
dfe1b307-9172-5f0a-ac7c-8803e01bbf50,4406.0,34.101891,-118.300613,,Los Angeles,f7f35634-f0e3-cd97-2e81-d66d346c6e2b
df26f517-66fa-f989-0813-5d586a1689ad,4410.0,34.063351,-118.296799,,Los Angeles,0585a01c-4c7d-6df0-621a-ef57e4cc4132
c5adf681-6b10-e53a-9145-de05b3ab1b2c,4436.0,34.105782,-118.291939,,Los Angeles,f7f35634-f0e3-cd97-2e81-d66d346c6e2b
2a69acc7-0bf9-c0ef-b581-6b74a985ab61,4437.0,34.105358,-118.28727,,Los Angeles,f7f35634-f0e3-cd97-2e81-d66d346c6e2b
b3969057-425c-b200-105a-da6b720299e3,4438.0,34.094929,-118.284561,,Los Angeles,f7f35634-f0e3-cd97-2e81-d66d346c6e2b
e28bc9ff-870f-084c-7244-f536285e25b4,4439.0,34.090969,-118.286247,,Los Angeles,f7f35634-f0e3-cd97-2e81-d66d346c6e2b
9a9e4310-8fb8-3bab-e875-4cd37cbd7025,4440.0,34.061661,-118.298241,,Los Angeles,0585a01c-4c7d-6df0-621a-ef57e4cc4132
09f6048f-e245-a460-0004-884cc167733f,4441.0,34.026619,-118.281807,,Los Angeles,f5cae3bf-3729-c619-c60a-3cab359eeefb
d675ebf7-4fe3-0c9a-5371-0f577e9cf84f,4442.0,34.098,-118.300468,,Los Angeles,f7f35634-f0e3-cd97-2e81-d66d346c6e2b
d29dc5df-cf1d-a110-0cc3-6d8c77863fe5,4443.0,34.022091,-118.279793,,Los Angeles,f5cae3bf-3729-c619-c60a-3cab359eeefb
6a46721a-cffa-6cdd-f963-a7efe00111e5,4444.0,34.061619,-118.305573,,Los Angeles,0585a01c-4c7d-6df0-621a-ef57e4cc4132
f689a4a5-ffda-0336-8c6e-90373020da5c,4445.0,34.073639,-118.251572,,Los Angeles,015c33b2-df14-61aa-f8eb-18b900745130
d663049d-155e-18b1-fa83-ada4a2121ac5,4446.0,34.05323,-118.278419,,Los Angeles,a02fdaa1-ad86-4c44-e049-548e8a0a8c96
03c54c71-fca0-5536-2169-df82b9bdee2d,4447.0,34.0616,-118.28199,,Los Angeles,a02fdaa1-ad86-4c44-e049-548e8a0a8c96
6ae04d52-adb3-28cb-f315-8c0c66dd7794,4448.0,34.03027,-118.273193,,Los Angeles,617959ce-3f1f-65a8-de52-71007814e8a2
03a89879-36a9-8d74-00de-59f550f0fc2b,4449.0,34.04557,-118.274193,,Los Angeles,5bc8fbbc-bde5-c099-4164-d8399f767c45
faf1501b-009a-815b-c137-8be5b7a28e0a,4450.0,34.063492,-118.287163,,Los Angeles,2a9eba0c-df56-1d80-2a75-9159fb7ff337
9cb017c1-8741-ae91-acfe-bb4bd29e8693,4451.0,34.10363,-118.291313,,Los Angeles,f7f35634-f0e3-cd97-2e81-d66d346c6e2b
9bbd750d-1e70-7c52-30c1-fb6a19086515,4452.0,34.102329,-118.28746,,Los Angeles,f7f35634-f0e3-cd97-2e81-d66d346c6e2b
4d6b234f-dfa7-c6ed-32d1-f81ba636425c,4453.0,34.082649,-118.284393,,Los Angeles,f7f35634-f0e3-cd97-2e81-d66d346c6e2b
2ea60b99-fa7f-f8bf-b044-284a47acf2f6,4454.0,34.017899,-118.291718,,Los Angeles,f5cae3bf-3729-c619-c60a-3cab359eeefb
ec3aa314-da9b-b017-79c1-47c719a5711b,4455.0,34.10936,-118.271812,,Los Angeles,ef901b93-2a7c-1880-6a37-53915c76f18a
0597aab6-14d3-0dbc-a0ac-f4c9658de17e,4456.0,34.052429,-118.302017,,Los Angeles,0585a01c-4c7d-6df0-621a-ef57e4cc4132
ccc14d51-73f6-60d8-e9f4-1cc04653a560,4457.0,34.100109,-118.289864,,Los Angeles,f7f35634-f0e3-cd97-2e81-d66d346c6e2b
41a93f90-dc82-1527-1da3-b7e2cad6e514,4472.0,34.092602,-118.28093,,Los Angeles,f7f35634-f0e3-cd97-2e81-d66d346c6e2b
d138d150-8557-716a-a750-2a812227d96d,4473.0,34.07159,-118.282288,,Los Angeles,a02fdaa1-ad86-4c44-e049-548e8a0a8c96
1d77ce40-58d8-7776-a51a-d4f3a699bae0,4474.0,34.110031,-118.287163,,Los Angeles,54f46a69-10ac-ff00-4389-2dfc254cb864
d9ead926-4745-dd9e-2789-6389df3277fd,4475.0,34.045181,-118.243248,,Los Angeles,5f2dd97f-1cfb-10f6-2827-688de6a16a3b
34ab18fd-0a68-e88e-0ad4-041504c14982,4476.0,34.08252,-118.27272,,Los Angeles,f7f35634-f0e3-cd97-2e81-d66d346c6e2b
50910bdc-8ef0-66d4-4279-b14dae55cdff,4477.0,34.103851,-118.325462,,Los Angeles,960d5a8f-9a65-6aaf-d141-25844d25deb3
914591ae-f03d-866a-5dec-c06af24dfdd8,4478.0,34.10424,-118.273697,,Los Angeles,ef901b93-2a7c-1880-6a37-53915c76f18a
d8ab0b30-0ac0-cf0d-d974-c146e8ec01b3,4479.0,34.031502,-118.288742,,Los Angeles,f5cae3bf-3729-c619-c60a-3cab359eeefb
9b8b71a1-b38a-05fb-f611-64cebfc74ca9,4480.0,34.05896,-118.250587,,Los Angeles,0d464138-a623-3255-3fc1-ea36f17fd374
a4e695c9-b65d-1226-7e96-9cf3a7c5cb87,4482.0,34.094372,-118.331009,,Los Angeles,b52a43ab-ad8d-194a-9892-139600ddb74d
6f790959-a3e0-4b3b-756b-0715e7180322,4483.0,34.1007,-118.259117,,Los Angeles,ef901b93-2a7c-1880-6a37-53915c76f18a
2da44da1-89b5-b368-df14-c6125f58d5b5,4486.0,34.06126,-118.258598,,Los Angeles,015c33b2-df14-61aa-f8eb-18b900745130
4a814d53-964d-db77-6025-f0ae35354579,4487.0,34.062111,-118.446922,,Los Angeles,5af84e6b-4f59-6727-10e6-d8e6568068b9
4578bab3-26a9-7465-2371-ea2c0247145f,4490.0,34.053551,-118.255836,,Los Angeles,5bc8fbbc-bde5-c099-4164-d8399f767c45
5e00ea6d-ca24-be4d-5667-2017555a4085,4491.0,34.04744,-118.24794,,Los Angeles,d76d4330-f144-6bea-b0c1-1fdecb91ce37
c787ddfb-5697-f17c-17fd-3736b7ef941c,4492.0,34.036869,-118.425499,,Los Angeles,b2489191-7b12-1dc5-4e5a-3a26d18a669a
4505f4f6-0a8c-46c7-0921-5f4f9edb95f2,4493.0,34.090279,-118.277191,,Los Angeles,f7f35634-f0e3-cd97-2e81-d66d346c6e2b
955d0e77-fb5e-b866-2640-211e29f2c3c7,4494.0,34.075981,-118.256012,,Los Angeles,015c33b2-df14-61aa-f8eb-18b900745130
fd42f697-6511-1656-5c64-60364a1eb1b7,4509.0,34.101639,-118.309174,,Los Angeles,960d5a8f-9a65-6aaf-d141-25844d25deb3
1d69d9fc-4b1c-b8bd-2130-260c8c69778f,4510.0,34.077351,-118.264549,,Los Angeles,015c33b2-df14-61aa-f8eb-18b900745130
ef0a81ed-3d5d-60bc-bb03-78eb7a62722e,4511.0,34.056278,-118.231773,,Los Angeles,0d464138-a623-3255-3fc1-ea36f17fd374
db66bfda-2df9-6747-4ed1-35530c5a876f,4512.0,34.043812,-118.264969,,Los Angeles,c6a53877-7733-0bdb-d721-0dff076ce2ef
4d7bd307-1224-11e6-ba89-82dd85e69ea9,4513.0,34.08371,-118.296021,,Los Angeles,f7f35634-f0e3-cd97-2e81-d66d346c6e2b
4c9a0ae1-5419-eefc-d5e7-3e3f673617d9,4514.0,34.046551,-118.451439,,Los Angeles,78f845f5-7b31-20df-2f4d-4c8650d7d13f
8f928dc5-1972-4ce3-1bd0-94486a2b3200,4515.0,34.039742,-118.442268,,Los Angeles,78f845f5-7b31-20df-2f4d-4c8650d7d13f
564ae909-7958-5e69-7b2e-1b82e89dc815,4516.0,34.045849,-118.254402,,Los Angeles,d76d4330-f144-6bea-b0c1-1fdecb91ce37
cff4c56b-f9ea-2c64-cc41-7e7cd741d609,4517.0,34.101959,-118.338852,,Los Angeles,b52a43ab-ad8d-194a-9892-139600ddb74d
1db2b452-7aa5-6a18-1fd3-c01757f98d1e,4518.0,34.057968,-118.299751,,Los Angeles,0585a01c-4c7d-6df0-621a-ef57e4cc4132
09aedbd0-6d31-6b4a-7f6b-8793b318ad4c,4521.0,33.990318,-118.412048,,Los Angeles,32ea6928-f623-6bf2-504b-74ba4a0fe75d
afe6790a-bc18-a40b-55c7-ed9d4d4985dc,4523.0,34.068748,-118.30928,,Los Angeles,f7108e96-f770-c226-3266-aa3bb0cde917
2aa36cf7-eb70-ba65-27d9-9a23e4f7625e,4524.0,34.06163,-118.301193,,Los Angeles,0585a01c-4c7d-6df0-621a-ef57e4cc4132
ce5dc807-6025-7199-9082-3edaa0722aa0,4525.0,34.10038,-118.341797,,Los Angeles,b52a43ab-ad8d-194a-9892-139600ddb74d
16408169-a38d-8afc-fdd2-ed7af97ccc57,4526.0,34.103378,-118.34919,,Los Angeles,419521fe-0e97-9cf3-2d16-34b4b4653252
32b2c492-15ac-e7a1-ceca-2ee310da8a95,4527.0,34.102001,-118.33741,,Los Angeles,b52a43ab-ad8d-194a-9892-139600ddb74d
62830869-0fa7-ee05-3897-4df5bff773ce,4528.0,34.06097,-118.444366,,Los Angeles,5af84e6b-4f59-6727-10e6-d8e6568068b9
8e751eb7-64d0-9913-191b-8adf0202861c,4529.0,34.10186,-118.33329,,Los Angeles,960d5a8f-9a65-6aaf-d141-25844d25deb3
eb8f2056-72d3-cc5d-4a31-b24384dd6da6,4534.0,34.10186,-118.32811,,Los Angeles,960d5a8f-9a65-6aaf-d141-25844d25deb3
b6e355f6-95bb-440d-c9cd-4af97d161f29,4536.0,33.989079,-118.462257,,Los Angeles,687c966c-377b-9aa2-bb2e-db20035b7399
156af458-6c4c-3935-379d-eda1ade6c5e9,4537.0,34.098228,-118.338821,,Los Angeles,b52a43ab-ad8d-194a-9892-139600ddb74d
ffc573d5-fd0b-a70e-385a-f4635e4af862,4538.0,34.06543,-118.308823,,Los Angeles,f7108e96-f770-c226-3266-aa3bb0cde917
2aa50f4e-c6f0-0933-95d1-805142cb6d1d,4539.0,34.101761,-118.33474,,Los Angeles,960d5a8f-9a65-6aaf-d141-25844d25deb3
1d7173e5-5bc7-fdeb-3123-4efe6e648043,4540.0,34.04776,-118.22541,,Los Angeles,5f2dd97f-1cfb-10f6-2827-688de6a16a3b
da54f267-dd13-8266-d26d-53961058fe8c,4543.0,33.95718,-118.451248,,Los Angeles,f3001cee-05da-8467-f063-13fff9a01fe8
869bdbd2-e72b-b5b7-0712-0911b3b68b57,4544.0,33.928459,-118.435204,,Los Angeles,f3001cee-05da-8467-f063-13fff9a01fe8
33a1d1c2-ad4a-b155-c09f-cd8f739cd488,4545.0,33.95879,-118.44828,,Los Angeles,f3001cee-05da-8467-f063-13fff9a01fe8
41a8a6e1-65e0-4993-7f41-1fed1e70e799,4546.0,34.031399,-118.453629,,Los Angeles,78f845f5-7b31-20df-2f4d-4c8650d7d13f
ff3e0ba1-0ac7-28b4-a418-65bf350d278d,4547.0,33.9897,-118.448883,,Los Angeles,687c966c-377b-9aa2-bb2e-db20035b7399
9f982188-3744-da64-cc24-9558f2ad985f,4548.0,34.026829,-118.393517,,Los Angeles,677fd139-d84a-1d3a-5b8e-8fb2bff29101
755a3ac1-32ae-2a20-1ac9-02ee25777cf0,4549.0,34.022449,-118.438332,,Los Angeles,b2489191-7b12-1dc5-4e5a-3a26d18a669a
d3b564b0-8be0-4c3e-5c94-938160c6b3ed,4552.0,33.990971,-118.421303,,Los Angeles,32ea6928-f623-6bf2-504b-74ba4a0fe75d
98a33736-fd1a-c7ce-1ad0-a6f226bdd974,4553.0,33.99958,-118.44136,,Los Angeles,6b384309-c9a9-37a6-8c8f-95ef04a012e8
905c053b-25fd-acbe-7ce7-1b48fba52e59,4554.0,34.00351,-118.43438,,Los Angeles,6b384309-c9a9-37a6-8c8f-95ef04a012e8
6c596216-ae0f-dbc8-a36b-cb0167e98363,4555.0,34.005871,-118.429161,,Los Angeles,6b384309-c9a9-37a6-8c8f-95ef04a012e8
ade7cef3-7ed2-ec2f-856f-3d95e0ae1a1b,4556.0,34.009022,-118.425011,,Los Angeles,6b384309-c9a9-37a6-8c8f-95ef04a012e8
d5627386-528c-c241-e345-ac72eac39204,4557.0,34.011799,-118.419441,,Los Angeles,6b384309-c9a9-37a6-8c8f-95ef04a012e8
a2939b3b-7fa7-4d8a-ff88-ec827f99d273,4558.0,34.025688,-118.395302,,Los Angeles,677fd139-d84a-1d3a-5b8e-8fb2bff29101
8af58903-33b5-b3ce-dfec-4623ab899605,4559.0,34.021992,-118.416496,,Los Angeles,b2489191-7b12-1dc5-4e5a-3a26d18a669a
027c013f-3801-8399-ee6a-8e2f9c19ed34,4560.0,34.017368,-118.420601,,Los Angeles,b2489191-7b12-1dc5-4e5a-3a26d18a669a
bf3df0bb-f66a-c168-b4a1-ca795718ada2,4561.0,34.020061,-118.422684,,Los Angeles,b2489191-7b12-1dc5-4e5a-3a26d18a669a
52631db9-d170-34ce-5179-7350e6256403,4562.0,34.02697,-118.428207,,Los Angeles,b2489191-7b12-1dc5-4e5a-3a26d18a669a
dfde2281-25fb-5f3d-866d-7002091472ad,4563.0,34.017448,-118.409569,,Los Angeles,677fd139-d84a-1d3a-5b8e-8fb2bff29101
27e969e2-c8bf-23fb-9a43-1f7a41c30359,4564.0,34.035351,-118.434143,,Los Angeles,b2489191-7b12-1dc5-4e5a-3a26d18a669a
4b5ca436-953c-178e-6106-7a8cd7a3283c,4565.0,33.989948,-118.434669,,Los Angeles,6b384309-c9a9-37a6-8c8f-95ef04a012e8
786e30ef-ce9b-2e70-b4d4-dfccb7d779cc,4566.0,34.023392,-118.399223,,Los Angeles,677fd139-d84a-1d3a-5b8e-8fb2bff29101
843b2a7d-15ab-2c21-ccc9-3ff710fce97d,4567.0,34.02018,-118.40403,,Los Angeles,677fd139-d84a-1d3a-5b8e-8fb2bff29101
10fc9eee-0a17-27f7-ea5f-24b6de6fec4b,4568.0,34.029121,-118.403168,,Los Angeles,677fd139-d84a-1d3a-5b8e-8fb2bff29101
4cea2df0-0a66-dc4e-2168-1081399f8a8f,4569.0,34.02655,-118.408463,,Los Angeles,677fd139-d84a-1d3a-5b8e-8fb2bff29101
72d6bc20-d80d-6a1c-c247-2fd603e9ba02,4570.0,34.01376,-118.417801,,Los Angeles,6b384309-c9a9-37a6-8c8f-95ef04a012e8
ccf719ab-2922-fbd8-dca5-b35354a1d505,4571.0,34.027649,-118.413559,,Los Angeles,677fd139-d84a-1d3a-5b8e-8fb2bff29101
75f2bc20-a7f5-195c-de62-d43f261908b9,4572.0,34.02948,-118.410469,,Los Angeles,677fd139-d84a-1d3a-5b8e-8fb2bff29101
61d9fe39-8147-a8f4-5f0e-f320f7f60e7f,4573.0,34.030472,-118.420982,,Los Angeles,b2489191-7b12-1dc5-4e5a-3a26d18a669a
089b30a0-809f-2923-87a1-798fe6addd9e,4575.0,34.000309,-118.402527,,Los Angeles,d75b1e24-9419-cf4d-6059-7bdc5dbe4409
cb4d18d6-adb6-da35-1734-a26c92e94e89,4576.0,34.022579,-118.40551,,Los Angeles,677fd139-d84a-1d3a-5b8e-8fb2bff29101
99a2ecb1-c202-387b-849b-8a44ce1bb02a,4577.0,33.993019,-118.414909,,Los Angeles,32ea6928-f623-6bf2-504b-74ba4a0fe75d
6d265dd8-bf39-1fbb-138c-3460fd938adc,4578.0,34.04298,-118.252953,,Los Angeles,87b0b125-ec1d-7da0-a6eb-8c9ebd69fe29
4a276dda-34c3-494a-c12e-a9b8e7e13ed8,4579.0,33.984859,-118.431129,,Los Angeles,32ea6928-f623-6bf2-504b-74ba4a0fe75d
6af79ad2-993e-c8c6-e6b1-06e289110af0,4580.0,33.982922,-118.410927,,Los Angeles,32ea6928-f623-6bf2-504b-74ba4a0fe75d
d872298c-7b72-590b-f8f8-f071d360da69,4581.0,33.970242,-118.426071,,Los Angeles,32ea6928-f623-6bf2-504b-74ba4a0fe75d
9b8086da-6379-4035-f8e4-5086ca819c6f,4582.0,33.980991,-118.414879,,Los Angeles,32ea6928-f623-6bf2-504b-74ba4a0fe75d
dd620222-d9ef-e28b-3bcb-50b3961d8dcf,4583.0,33.976189,-118.418419,,Los Angeles,32ea6928-f623-6bf2-504b-74ba4a0fe75d
e2a01335-a830-23ab-053e-4b42cc4da021,4584.0,34.094349,-118.326363,,Los Angeles,b52a43ab-ad8d-194a-9892-139600ddb74d
4d6cd782-2e95-83ea-bda1-7da2000fc63d,4587.0,34.060791,-118.309067,,Los Angeles,0585a01c-4c7d-6df0-621a-ef57e4cc4132
552ae5ca-4124-405b-91fc-fe8881c16e98,4595.0,34.16835,-118.387497,,Los Angeles,b52fa53c-0bf6-4ef7-73ec-28d00252f615
4312ece2-dc21-51e1-7e56-ac3d10cc8711,4596.0,34.168331,-118.396156,,Los Angeles,f453324e-f486-ab73-9fab-a8272e50bd4e
c5c14262-4d84-9ec5-d334-886ff164f9d8,4597.0,34.165218,-118.355148,,Los Angeles,3eff8b3f-c177-f113-1e78-2196324f3e81
6238d0a0-cf5e-9ea3-6258-4ab368777bab,4598.0,34.16552,-118.375153,,Los Angeles,3eff8b3f-c177-f113-1e78-2196324f3e81
ef7e85ec-a417-956f-29ee-7f3d0ff030b8,4599.0,34.168751,-118.36187,,Los Angeles,3eff8b3f-c177-f113-1e78-2196324f3e81
babd4745-497e-9f1a-3d2b-f042209818d1,4600.0,34.17765,-118.382309,,Los Angeles,b52fa53c-0bf6-4ef7-73ec-28d00252f615
f11ddff7-0e37-0526-5582-a3bdd476fe38,4601.0,34.161709,-118.372818,,Los Angeles,3eff8b3f-c177-f113-1e78-2196324f3e81
2412579d-6af9-44e0-7b38-785b0932f5b6,4602.0,34.164951,-118.363632,,Los Angeles,3eff8b3f-c177-f113-1e78-2196324f3e81
9a1a7d6f-dd02-e100-e3d4-84087de8a234,4603.0,34.152142,-118.361954,,Los Angeles,76531737-f129-c8c6-d1ca-4dc4edfde416
b2ddc481-ac6d-5df8-14e5-064cb799ae8e,4604.0,34.158321,-118.370811,,Los Angeles,3eff8b3f-c177-f113-1e78-2196324f3e81
5a4f4145-fc98-c279-cf6f-111c26c06e67,4605.0,34.152,-118.350601,,Los Angeles,76531737-f129-c8c6-d1ca-4dc4edfde416
775e0ec3-9c9d-03f3-0901-8aee69407be7,4606.0,34.168629,-118.377068,,Los Angeles,3eff8b3f-c177-f113-1e78-2196324f3e81
19faa06e-0c0a-5967-7579-501a62fda854,4613.0,34.069752,-118.445351,,Los Angeles,5af84e6b-4f59-6727-10e6-d8e6568068b9
052daad3-26c0-0984-c734-bb05788c31f6,4614.0,34.07365,-118.439842,,Los Angeles,5af84e6b-4f59-6727-10e6-d8e6568068b9
21f8c156-9e0d-f45b-992a-34a1084fa819,4627.0,34.101849,-118.325142,,Los Angeles,960d5a8f-9a65-6aaf-d141-25844d25deb3
b3386c3e-1af4-787f-52eb-dac5a1457899,4628.0,34.05978,-118.288544,,Los Angeles,2a9eba0c-df56-1d80-2a75-9159fb7ff337
31e9ca80-58bf-3b9e-a624-5b598c94af98,4632.0,33.986671,-118.440948,,Los Angeles,6b384309-c9a9-37a6-8c8f-95ef04a012e8
c707aef9-c6c3-744c-c88e-03b662276cbc,4643.0,34.07262,-118.44944,,Los Angeles,5af84e6b-4f59-6727-10e6-d8e6568068b9
0f66b32d-e19b-5837-1c6a-4b5e7d859725,4644.0,34.061859,-118.45002,,Los Angeles,5af84e6b-4f59-6727-10e6-d8e6568068b9
9d44c93e-7799-a8e2-b368-c5539c30ceaa,4645.0,34.023411,-118.429008,,Los Angeles,b2489191-7b12-1dc5-4e5a-3a26d18a669a
cd613e30-d8f1-6adf-91b7-584a2265b1f5,31000.0,38.858971,-77.05323717,Eads St & 15th St S,Washington D.C.,e488b6c8-5ad3-ba32-8332-f05a58296818
1e2feb89-414c-343c-1027-c4d1c386bbc4,31002.0,38.856385,-77.04936383,Crystal Dr & 20th St S,Washington D.C.,e488b6c8-5ad3-ba32-8332-f05a58296818
78e51061-7311-d8a3-c2ce-6f447ed4d57b,31003.0,38.86069433,-77.049441,Crystal Dr & 15th St S,Washington D.C.,e488b6c8-5ad3-ba32-8332-f05a58296818
35bf992d-c9e9-c616-612e-7696a6cecc1b,31004.0,38.8578475,-77.05949,Aurora Hills Cmty Ctr / 18th St & S Hayes St,Washington D.C.,e488b6c8-5ad3-ba32-8332-f05a58296818
e4b06ce6-0741-c7a8-7ce4-2c8218072e8c,31005.0,38.86218333,-77.05996017,Pentagon City Metro / 12th St & S Hayes St,Washington D.C.,e488b6c8-5ad3-ba32-8332-f05a58296818
9b810e76-6ec9-d286-63ca-828dd5f4b3b2,31006.0,38.86331354,-77.06341624,Pentagon Row Plaza / Army Navy Dr & Joyce St,Washington D.C.,767d5274-c68d-eb5d-403a-960a8652dbd0
b2221a58-008a-05a6-c464-7159c324c985,31007.0,38.857546,-77.05175217,Crystal City Metro / 18th St & S Bell St,Washington D.C.,e488b6c8-5ad3-ba32-8332-f05a58296818
cd447e35-b8b6-d8fe-442e-3d437204e52d,31009.0,38.84844217,-77.051514,Crystal Dr & 27th St S,Washington D.C.,c7eec61b-bf97-03c0-96fa-bb7b1ba95a54
1a2b8f1f-f1fd-42a2-9755-d4c13a902931,31010.0,38.84263717,-77.05025233,S Glebe Rd & Potomac Ave,Washington D.C.,c7eec61b-bf97-03c0-96fa-bb7b1ba95a54
05b6e6e3-07d4-bedc-5143-1193e6c3f339,31011.0,38.852902,-77.04973183,Crystal Dr & 23rd St S,Washington D.C.,e488b6c8-5ad3-ba32-8332-f05a58296818
025b413f-8a9a-021e-a648-a7dd06839eb9,31012.0,38.850688,-77.05152,Clark St & 26th St S,Washington D.C.,e488b6c8-5ad3-ba32-8332-f05a58296818
afbd67f9-6196-99cf-e198-8ad9f06c144a,31013.0,38.85436367,-77.05343933,Eads St & 22nd St S,Washington D.C.,e488b6c8-5ad3-ba32-8332-f05a58296818
b9d179e0-6c0f-d4f5-f813-0c4237730edf,31014.0,38.897218,-77.0721755,19th St N & Ft Myer Dr,Washington D.C.,4bbdbb01-dc14-ed57-5e07-30b3cc170c31
c381e88f-38c0-c8fd-8712-b8bc076f3787,31015.0,38.89456967,-77.07203233,Wilson Blvd & Ft Myer Dr,Washington D.C.,4bbdbb01-dc14-ed57-5e07-30b3cc170c31
8d88348a-7eed-8d14-f06d-3fef701966a0,31016.0,38.8934245,-77.07641167,Clarendon Blvd & Pierce St,Washington D.C.,4bbdbb01-dc14-ed57-5e07-30b3cc170c31
ad45f23d-3b1a-11df-587f-d2803bab6c39,31017.0,38.89180733,-77.0845985,Wilson Blvd & N Uhle St,Washington D.C.,4bbdbb01-dc14-ed57-5e07-30b3cc170c31
f3c64af7-75a8-9294-c2cd-789a380208a9,31018.0,38.892164,-77.079375,Rhodes St & 16th St N,Washington D.C.,4bbdbb01-dc14-ed57-5e07-30b3cc170c31
6a8ac4ba-0580-5975-ed2f-89d94a2f20aa,31019.0,38.889396,-77.09186241,Wilson Blvd & N Edgewood St,Washington D.C.,fa749692-f21f-f5eb-6ed7-8f5d0960afe9
ec148cb4-8e73-ca47-ea90-a8f0d66b829e,31021.0,38.8880625,-77.093158,Clarendon Blvd & N Fillmore St,Washington D.C.,fa749692-f21f-f5eb-6ed7-8f5d0960afe9
a11d459a-2f97-8d87-1999-9e3fa46d6753,31022.0,38.88701,-77.09535267,Clarendon Metro / Wilson Blvd & N Highland St,Washington D.C.,fa749692-f21f-f5eb-6ed7-8f5d0960afe9
4be03db0-dc25-74bd-b940-67edfe175330,31023.0,38.885801,-77.09783733,Fairfax Dr & Wilson Blvd,Washington D.C.,fa749692-f21f-f5eb-6ed7-8f5d0960afe9
e5446dd4-552b-82f6-be3e-dc0a1ef2a4f0,31024.0,38.882553,-77.10335817,Virginia Square Metro / Monroe St & 9th St N,Washington D.C.,fa749692-f21f-f5eb-6ed7-8f5d0960afe9
803468b6-b610-a9f7-f927-0f4eb8b333a8,31025.0,38.88397,-77.10783,Central Library / Quincy St & 10th St N,Washington D.C.,fa749692-f21f-f5eb-6ed7-8f5d0960afe9
81f9c1f6-6c0f-3459-f79b-17aeefba91fc,31026.0,38.884734,-77.093485,Washington Blvd & 10th St N,Washington D.C.,fa749692-f21f-f5eb-6ed7-8f5d0960afe9
3099fdf5-ab99-254a-e901-e35cd47d380d,31027.0,38.89397933,-77.07862967,Wilson Blvd & N Quinn St,Washington D.C.,4bbdbb01-dc14-ed57-5e07-30b3cc170c31
f9341c68-966b-aea1-48be-ab134da98f1d,31028.0,38.893237,-77.086063,N Veitch St & Key Blvd,Washington D.C.,4bbdbb01-dc14-ed57-5e07-30b3cc170c31
f0dfb4a5-d8a0-64df-7fd6-3116e1ea24c4,31029.0,38.89692183,-77.086502,N Veitch St & 20th St N,Washington D.C.,4bbdbb01-dc14-ed57-5e07-30b3cc170c31
da711448-96c8-da19-64b2-d2bc815a47c5,31030.0,38.89593,-77.089006,Langston Blvd & N Adams St,Washington D.C.,4bbdbb01-dc14-ed57-5e07-30b3cc170c31
be6521cc-3e24-34e3-7af0-27bc08d6af57,31031.0,38.89054,-77.08095,15th St & N Scott St,Washington D.C.,4bbdbb01-dc14-ed57-5e07-30b3cc170c31
aa2ca1af-6a10-7b75-677f-6cbdcc22af58,31032.0,38.880785,-77.090792,Washington Blvd & 7th St N,Washington D.C.,fa749692-f21f-f5eb-6ed7-8f5d0960afe9
e1fab9d7-8c7e-134f-5dfb-d3d12c4a3698,31033.0,38.85033658,-77.10098863,Barcroft Community Center,Washington D.C.,834c1b69-573a-c59a-355f-2af41757905e
bcfbb050-acab-1a6b-c69d-4bd8b3fa7aa7,31034.0,38.882629,-77.109366,Fairfax Dr & N Randolph St,Washington D.C.,fa749692-f21f-f5eb-6ed7-8f5d0960afe9
a9ec0806-705f-ca16-1622-bd795fec898f,31035.0,38.876393,-77.10775533,N Quincy St & Glebe Rd,Washington D.C.,25f02628-eb07-c30d-5cd5-061c9c5f319e
29e821a4-c748-03e3-1ba1-621582283d15,31036.0,38.87885583,-77.1206305,George Mason Dr & Wilson Blvd,Washington D.C.,b3de08f9-ec98-3704-4692-ba0357079670
5eda92d8-64ac-5db9-d707-107e855c3844,31037.0,38.881044,-77.111768,Ballston Metro / Stuart St & 9th St N,Washington D.C.,b3de08f9-ec98-3704-4692-ba0357079670
78255d68-0792-3986-bb96-8a437d5c8dfc,31038.0,38.883921,-77.116817,Glebe Rd & 11th St N,Washington D.C.,b3de08f9-ec98-3704-4692-ba0357079670
d92a4aa2-b410-d93c-4efb-c8d60b21fbac,31039.0,38.87964733,-77.107987,Wilson Blvd & N Quincy St,Washington D.C.,25f02628-eb07-c30d-5cd5-061c9c5f319e
9403560d-97da-e38d-9d64-3c25fbb230bb,31040.0,38.88461983,-77.10055317,GMU/Fairfax Dr & Kenmore St,Washington D.C.,fa749692-f21f-f5eb-6ed7-8f5d0960afe9
2b28fef0-2b9c-014e-a5ac-06d864c2f2e3,31041.0,38.80308483,-77.04039,Prince St & Union St,Washington D.C.,af9b74f8-4ffc-bf42-1792-1e6c8b8e8f4e
0326324d-fb69-5ffb-3a18-90c78092b4d4,31042.0,38.80469017,-77.04338,Market Square / King St & Royal St,Washington D.C.,af9b74f8-4ffc-bf42-1792-1e6c8b8e8f4e
eb8ac8ce-8a24-5e6b-3313-8131c541013d,31043.0,38.81069317,-77.044633,St Asaph & Pendleton St,Washington D.C.,af9b74f8-4ffc-bf42-1792-1e6c8b8e8f4e
678a5aa3-3b6f-e507-8c5f-e8f8dc3bf364,31044.0,38.805317,-77.049883,King St & Patrick St,Washington D.C.,af9b74f8-4ffc-bf42-1792-1e6c8b8e8f4e
d8f33418-f3d4-e711-5804-f92283868a29,31045.0,38.805648,-77.05293,Commerce St & Fayette St,Washington D.C.,af9b74f8-4ffc-bf42-1792-1e6c8b8e8f4e
e8e5b461-7589-a82b-5a70-2cfa93ea5c4e,31046.0,38.811456,-77.050276,Henry St & Pendleton St,Washington D.C.,af9b74f8-4ffc-bf42-1792-1e6c8b8e8f4e
9be3cecb-8c49-7c68-a8c2-4d4244ef7feb,31047.0,38.814577,-77.052808,Braddock Rd Metro North,Washington D.C.,af9b74f8-4ffc-bf42-1792-1e6c8b8e8f4e
62397bc7-0176-2741-bab9-f87ff5059285,31048.0,38.80576285,-77.060627,King St Metro South,Washington D.C.,af9b74f8-4ffc-bf42-1792-1e6c8b8e8f4e
f463b337-d20b-5d59-db61-0487c89da11b,31049.0,38.882425,-77.112754,Fairfax Dr & N Taylor St,Washington D.C.,fa749692-f21f-f5eb-6ed7-8f5d0960afe9
83333218-bd91-a1b7-f03e-dca7e2dcaa37,31050.0,38.884961,-77.08777,Barton St & 10th St N,Washington D.C.,fa749692-f21f-f5eb-6ed7-8f5d0960afe9
c7038069-84c8-1999-2116-7d8fcf23cae8,31051.0,38.889365,-77.07732317,Arlington Blvd & N Queen St,Washington D.C.,4bbdbb01-dc14-ed57-5e07-30b3cc170c31
f320cd57-6d14-475b-349a-ae908fb5262c,31052.0,38.844015,-77.050537,Potomac Ave & 35th St S,Washington D.C.,c7eec61b-bf97-03c0-96fa-bb7b1ba95a54
5d5f576c-deb8-fc4c-7b29-7d0b0e5e18ba,31053.0,38.863833,-77.080319,Columbia Pike & S Courthouse Rd,Washington D.C.,767d5274-c68d-eb5d-403a-960a8652dbd0
f0e642f4-3328-ad08-8ded-3c9691eb79fa,31054.0,38.847129,-77.11255029,Wakefield High School,Washington D.C.,834c1b69-573a-c59a-355f-2af41757905e
d037cdff-7c24-0d49-69d4-95dd81355c53,31055.0,38.846222,-77.06936833,28th St & S Meade St,Washington D.C.,c7eec61b-bf97-03c0-96fa-bb7b1ba95a54
0067dba8-5898-9008-6a17-b9af5b569643,31056.0,38.847977,-77.075104,S Troy St & 26th St S,Washington D.C.,834c1b69-573a-c59a-355f-2af41757905e
c9546b43-9f9d-0129-8a44-9ebe89d9bf02,31058.0,38.86034391,-77.093672,Columbia Pike & Monroe St,Washington D.C.,25f02628-eb07-c30d-5cd5-061c9c5f319e
99901c04-7549-1bc3-54c5-6c9a9cc9af4e,31059.0,38.84736,-77.095431,S Four Mile Run Dr & Walter Reed Dr,Washington D.C.,834c1b69-573a-c59a-355f-2af41757905e
a2a7ae1f-3ac7-652c-cdf8-440407295e42,31060.0,38.84232,-77.089555,S Arlington Mill Dr & Campbell Ave,Washington D.C.,834c1b69-573a-c59a-355f-2af41757905e
2e47dc0e-959f-3a51-8cfe-5cd12d5db79b,31061.0,38.848454,-77.084918,S Kenmore St & 24th St S,Washington D.C.,834c1b69-573a-c59a-355f-2af41757905e
8d103ed3-cc66-7e97-1773-308cdc6b13ab,31062.0,38.896553,-77.06719117,Roosevelt Island,Washington D.C.,cc7c6d81-2d6f-2efc-4e61-3a365119cdcc
ee52bdb6-d102-0a15-d9ed-17e3cc0e95ee,31064.0,38.865029,-77.039511,Gravelly Point,Washington D.C.,e488b6c8-5ad3-ba32-8332-f05a58296818
f18dd1ee-d77c-96c0-084f-3dd6415af341,31065.0,38.88065683,-77.08646617,N Pershing Dr & N Wayne St,Washington D.C.,fa749692-f21f-f5eb-6ed7-8f5d0960afe9
de3a5db5-154e-d512-1209-3d26ac512b01,31066.0,38.867262,-77.07232283,Columbia Pike & S Orme St,Washington D.C.,767d5274-c68d-eb5d-403a-960a8652dbd0
c10faa40-03ba-33db-73f7-ba8e0445d656,31067.0,38.86243717,-77.086599,Columbia Pike & S Walter Reed Dr,Washington D.C.,25f02628-eb07-c30d-5cd5-061c9c5f319e
44c5b476-3fe3-1d03-47fc-816ac16e2284,31068.0,38.856319,-77.111695,Arlington Mill Cmty Center / Columbia Pike & S Dinwiddie St,Washington D.C.,b3de08f9-ec98-3704-4692-ba0357079670
2f429ce5-9ff3-078f-cc1b-0c3e1c07724e,31069.0,38.871822,-77.107906,N Pershing Dr & N George Mason Dr,Washington D.C.,25f02628-eb07-c30d-5cd5-061c9c5f319e
2adf559a-11cb-c288-4a50-12dc582c18c9,31070.0,38.87369883,-77.08927183,Arlington Blvd & Fillmore St,Washington D.C.,25f02628-eb07-c30d-5cd5-061c9c5f319e
f3b37f32-8702-66c4-4155-d7ef28dd37eb,31071.0,38.86299317,-77.0547675,Eads St & 12th St S,Washington D.C.,e488b6c8-5ad3-ba32-8332-f05a58296818
a5f09e63-45dd-b87d-a81a-a40a2b0b8c12,31072.0,38.8378995,-77.09350367,31st St & S Woodrow St,Washington D.C.,834c1b69-573a-c59a-355f-2af41757905e
b3df44a4-7467-537a-4b63-e0efb62ac1fe,31073.0,38.873219,-77.082104,Washington Blvd & Walter Reed Dr ,Washington D.C.,767d5274-c68d-eb5d-403a-960a8652dbd0
1d3b993f-7949-0eab-7f1a-355e526eb523,31074.0,38.869418,-77.095596,TJ Cmty Ctr / 2nd St & S Old Glebe Rd,Washington D.C.,25f02628-eb07-c30d-5cd5-061c9c5f319e
57e54acc-62f5-680c-4fdf-8e1a060cea63,31075.0,38.866471,-77.076131,Rolfe St & 9th St S,Washington D.C.,767d5274-c68d-eb5d-403a-960a8652dbd0
4227de21-3023-580c-cbd3-f5e06bc15385,31077.0,38.88988667,-77.07137,Iwo Jima Memorial / Meade & 14th St N,Washington D.C.,4bbdbb01-dc14-ed57-5e07-30b3cc170c31
baeb41a5-e65a-8149-40e2-a20a1bd7ce73,31078.0,38.869442,-77.104503,Arlington Blvd & S George Mason Dr,Washington D.C.,25f02628-eb07-c30d-5cd5-061c9c5f319e
f72f2bb8-3586-fca7-fa0b-85188296f5ea,31079.0,38.894941,-77.09169,Langston Blvd & N Cleveland St,Washington D.C.,fa749692-f21f-f5eb-6ed7-8f5d0960afe9
f9bddea5-d129-82e4-6e80-fa489b0bca16,31080.0,38.89758133,-77.08089217,Langston Blvd & N Scott St,Washington D.C.,4bbdbb01-dc14-ed57-5e07-30b3cc170c31
65b675cd-0492-c4f5-39b2-1c95055455e8,31081.0,38.804378,-77.060932,Duke St & John Carlyle St,Washington D.C.,af9b74f8-4ffc-bf42-1792-1e6c8b8e8f4e
f5bb9188-b805-99e9-090b-20bb257e8454,31082.0,38.80109633,-77.068952,Eisenhower Ave & Mill Race Ln,Washington D.C.,af9b74f8-4ffc-bf42-1792-1e6c8b8e8f4e
819d7ca7-b461-08cc-7217-54ef2904acec,31083.0,38.82175,-77.047519,Potomac Greens Dr & Slaters Ln,Washington D.C.,b89c4e56-261c-374b-a076-57d61404ab1e
d50e0097-8b71-99cd-6d39-eb43ad9cedde,31084.0,38.802677,-77.063562,Ballenger Ave & Dulaney St,Washington D.C.,af9b74f8-4ffc-bf42-1792-1e6c8b8e8f4e
a17a4340-f9c0-8fef-fa1b-1bf13879399b,31085.0,38.820064,-77.057619,Mount Vernon Ave & E Nelson Ave,Washington D.C.,b89c4e56-261c-374b-a076-57d61404ab1e
736a947a-843f-dda7-b1ee-daffcc3d5506,31086.0,38.82595,-77.05860067,Mount Vernon Ave & E Del Ray Ave,Washington D.C.,b89c4e56-261c-374b-a076-57d61404ab1e
07dbf924-a604-8457-861e-02ec39235bc0,31087.0,38.820932,-77.053096,Monroe Ave & Leslie Ave,Washington D.C.,b89c4e56-261c-374b-a076-57d61404ab1e
cdaaac43-936a-a40c-acc6-6a576518093d,31088.0,38.8329895,-77.05986883,Mount Vernon Ave & Kennedy St,Washington D.C.,c7eec61b-bf97-03c0-96fa-bb7b1ba95a54
6d21f4cd-a185-cc8e-a8ea-37f7523d2a54,31089.0,38.890612,-77.084801,Court House Metro / 15th St & N Uhle St,Washington D.C.,4bbdbb01-dc14-ed57-5e07-30b3cc170c31
202cc828-4c71-7095-bcc9-9ae80f0c8a89,31090.0,38.86550833,-77.05003,Long Bridge Park / Long Bridge Dr & 6th St S,Washington D.C.,e488b6c8-5ad3-ba32-8332-f05a58296818
0c250a03-e023-033d-364e-433ff7c882f4,31091.0,38.859254,-77.063275,Joyce St & 16th St S,Washington D.C.,e488b6c8-5ad3-ba32-8332-f05a58296818
1391f9b9-dbc7-99b0-121b-28004e6f5a94,31092.0,38.89642083,-77.104562,Langston Blvd & N Monroe St,Washington D.C.,fa749692-f21f-f5eb-6ed7-8f5d0960afe9
4c41d9c0-f075-34fe-eacc-110e4f73fd94,31093.0,38.89893583,-77.07846633,21st St & N Pierce St,Washington D.C.,4bbdbb01-dc14-ed57-5e07-30b3cc170c31
909ff497-6a8a-43ef-2880-4790be6c6fe9,31094.0,38.895377,-77.09713,Langston Blvd & N Kirkwood Rd,Washington D.C.,fa749692-f21f-f5eb-6ed7-8f5d0960afe9
8f8b2b83-022b-c320-2161-5022409a8a78,31095.0,38.86215025,-77.06821683,Army Navy Dr & S Nash St,Washington D.C.,767d5274-c68d-eb5d-403a-960a8652dbd0
973082d6-09b4-e5d2-d9bc-1d97e0f3a7ef,31096.0,38.86612,-77.08788,Walter Reed Dr & 8th St S,Washington D.C.,25f02628-eb07-c30d-5cd5-061c9c5f319e
e69bae29-f652-d008-37b4-000bd1c51f86,31097.0,38.812718,-77.044124,Saint Asaph St & Madison St,Washington D.C.,af9b74f8-4ffc-bf42-1792-1e6c8b8e8f4e
d3f21dcc-2be8-8b46-75fa-6dd891fde85c,31098.0,38.8069135,-77.059892,King St Metro North / Cameron St,Washington D.C.,af9b74f8-4ffc-bf42-1792-1e6c8b8e8f4e
c7af3626-f949-5568-deb0-e066de26e655,31099.0,38.813485,-77.049468,Madison St & N Henry St,Washington D.C.,af9b74f8-4ffc-bf42-1792-1e6c8b8e8f4e
0994940e-8245-8cc8-9f7a-7dafb43adc4f,31100.0,38.89978483,-77.04299083,19th St & Pennsylvania Ave NW,Washington D.C.,7bd9e8a1-ff29-7d0e-4f2e-84fcb06dbee0
1959b9ef-58d0-7674-334d-e73d60c290d0,31101.0,38.91761417,-77.032096,14th & V St NW,Washington D.C.,14b9adb5-0c6d-ea3d-b85a-5cd22959fea3
e585552f-ac95-4ab5-92c9-357d34accd78,31102.0,38.92934633,-77.02789283,11th & Kenyon St NW,Washington D.C.,ec717f15-8895-787f-99c4-258bfc985000
7e0ab2ed-31b1-c27e-9766-99cc6ed5d1bf,31104.0,38.92284916,-77.04252452,Adams Mill & Columbia Rd NW,Washington D.C.,14b9adb5-0c6d-ea3d-b85a-5cd22959fea3
63db01fc-aa7c-314b-f01d-bf291abb8ba3,31105.0,38.926727,-77.03224317,14th & Harvard St NW,Washington D.C.,ec717f15-8895-787f-99c4-258bfc985000
04673b75-7ff2-e341-810d-2e304bcb6b22,31106.0,38.92318917,-77.047659,Calvert & Biltmore St NW,Washington D.C.,14b9adb5-0c6d-ea3d-b85a-5cd22959fea3
66fec086-df22-9650-9cb4-71a55349da48,31107.0,38.93185217,-77.03877433,Lamont & Mt Pleasant NW,Washington D.C.,ec717f15-8895-787f-99c4-258bfc985000
282ee0bc-04a1-bde4-4806-aa81e65150b5,31108.0,38.8766525,-77.017898,4th & M St SW,Washington D.C.,bd953dc2-3cc2-1779-0825-c7cc67e84707
cfa6cf3e-53e6-d093-db87-872d336b1a45,31109.0,38.91554683,-77.02210717,7th & T St NW,Washington D.C.,400db00d-d388-1a50-5805-6ed0980dc6ff
2298bdb1-c85f-0d46-9037-15c8fcaf4a5a,31110.0,38.9153435,-77.04470967,20th St & Florida Ave NW,Washington D.C.,14b9adb5-0c6d-ea3d-b85a-5cd22959fea3
443baac5-3689-1eeb-6de2-b33b56cef8ec,31111.0,38.91715917,-77.02588367,10th & U St NW,Washington D.C.,400db00d-d388-1a50-5805-6ed0980dc6ff
611575c2-d673-93d6-18ae-013eaca91679,31112.0,38.927872,-77.043358,Harvard St & Adams Mill Rd NW,Washington D.C.,14b9adb5-0c6d-ea3d-b85a-5cd22959fea3
ea190b2a-5806-8a9d-8c31-406deea3d685,31113.0,38.92055917,-77.043701,Columbia Rd & Belmont St NW,Washington D.C.,14b9adb5-0c6d-ea3d-b85a-5cd22959fea3
88c9da8a-afe6-73f6-d673-0839e1e48557,31114.0,38.9186715,-77.04157733,18th St & Wyoming Ave NW,Washington D.C.,14b9adb5-0c6d-ea3d-b85a-5cd22959fea3
88534206-fc4a-447e-c498-72c67c081bb7,31115.0,38.928049,-77.02395783,Columbia Rd & Georgia Ave NW,Washington D.C.,ec717f15-8895-787f-99c4-258bfc985000
0a57af35-b9b8-1635-10b8-fe223c116549,31116.0,38.917761,-77.040761,California St & Florida Ave NW,Washington D.C.,14b9adb5-0c6d-ea3d-b85a-5cd22959fea3
2aa3300b-2b71-1343-220d-672b15ad9a9d,31117.0,38.92330683,-77.035192,15th & Euclid St NW,Washington D.C.,14b9adb5-0c6d-ea3d-b85a-5cd22959fea3
449c4ca2-3685-156b-89c8-0c4de9367ed9,31118.0,38.917622,-77.01597,3rd & Elm St NW,Washington D.C.,400db00d-d388-1a50-5805-6ed0980dc6ff
8181e84d-99a7-4924-550d-40ddc2557035,31119.0,38.92088767,-77.03191067,14th & Belmont St NW,Washington D.C.,14b9adb5-0c6d-ea3d-b85a-5cd22959fea3
56befa39-5e3c-536c-415a-c400d7547080,31120.0,38.9203255,-77.02572267,10th St & Florida Ave NW,Washington D.C.,ec717f15-8895-787f-99c4-258bfc985000
3c35612e-4a8d-15d8-1d29-6588571ceeee,31121.0,38.92356167,-77.0500985,Calvert St & Woodley Pl NW,Washington D.C.,14b9adb5-0c6d-ea3d-b85a-5cd22959fea3
c78fec45-9a9e-994c-f1a9-a658de0f39a7,31122.0,38.928847,-77.03629367,16th & Irving St NW,Washington D.C.,ec717f15-8895-787f-99c4-258bfc985000
7d2186d3-e323-ce54-b711-5c02f44d7e40,31123.0,38.92527333,-77.03245933,14th & Girard St NW,Washington D.C.,ec717f15-8895-787f-99c4-258bfc985000
c52f4fbe-8d19-821f-9478-10d822a608bf,31124.0,38.928552,-77.03244617,14th & Irving St NW,Washington D.C.,ec717f15-8895-787f-99c4-258bfc985000
6816de06-0a04-ef48-521b-18a91ab1c42f,31125.0,38.91897767,-77.034449,15th & W St NW,Washington D.C.,14b9adb5-0c6d-ea3d-b85a-5cd22959fea3
fdc1786b-ddbd-358f-6156-c4df12bccdcb,31126.0,38.925483,-77.02712533,11th & Girard St NW,Washington D.C.,ec717f15-8895-787f-99c4-258bfc985000
20012170-d418-f7af-25b7-501ac9c1ffef,31127.0,38.898925,-77.04885238,22nd & H St NW,Washington D.C.,7bd9e8a1-ff29-7d0e-4f2e-84fcb06dbee0
96605d95-9d7c-d4f6-1d5c-482557450e65,31128.0,38.9051995,-77.05031767,23rd & M St NW,Washington D.C.,cc7c6d81-2d6f-2efc-4e61-3a365119cdcc
139f7110-60c7-3494-ed19-2da3c82ad589,31129.0,38.89635367,-77.033381,15th St & Pennsylvania Ave NW,Washington D.C.,2547f19c-6bf8-4914-a6a5-bc9974a677c6
90e32e82-3945-5353-8cde-ce75921ebce6,31130.0,38.914034,-77.0216685,7th & S St NW,Washington D.C.,400db00d-d388-1a50-5805-6ed0980dc6ff
5d698c8b-4448-0030-f3c6-68b114ed2049,31131.0,38.93418883,-77.03281017,14th & Otis Pl NW,Washington D.C.,ec717f15-8895-787f-99c4-258bfc985000
88c780f6-907f-9669-4ba9-55f3e4096150,31132.0,38.91666417,-77.029755,13th & U St NW,Washington D.C.,14b9adb5-0c6d-ea3d-b85a-5cd22959fea3
e5920673-7530-5db7-1d43-d1ffecd1345e,31133.0,38.91799017,-77.045487,20th & Columbia Rd NW,Washington D.C.,14b9adb5-0c6d-ea3d-b85a-5cd22959fea3
0bb662a8-c979-cb06-1b94-3cfc46f57327,31134.0,38.91765583,-77.02282833,8th & V St NW,Washington D.C.,400db00d-d388-1a50-5805-6ed0980dc6ff
9d19ee45-032b-7328-4bb5-7b5cd3e89d32,31135.0,38.92606333,-77.03665267,16th & Harvard St NW,Washington D.C.,ec717f15-8895-787f-99c4-258bfc985000
69dd6493-1778-8b95-03b9-6d91aba018ea,31136.0,38.92209183,-77.02710633,11th & Clifton St NW,Washington D.C.,ec717f15-8895-787f-99c4-258bfc985000
ca357568-e293-4bf1-d37c-99611d775b7c,31137.0,38.93713517,-77.0191335,Park Pl & Rock Creek Church Rd NW,Washington D.C.,ec717f15-8895-787f-99c4-258bfc985000
c91752a3-3d58-9cab-301b-a9880a3efb80,31138.0,38.92112667,-77.01823133,4th & College St NW,Washington D.C.,400db00d-d388-1a50-5805-6ed0980dc6ff
297a21d7-6bc7-8bf5-9638-0ed6fcf7f49d,31200.0,38.91009967,-77.04426567,Massachusetts Ave & Dupont Circle NW,Washington D.C.,a36939ef-ea83-854a-faa3-0fac0e42d43c
ae4ecf4b-2ad9-a40a-736e-bf511d95389b,31201.0,38.909774,-77.034427,15th & P St NW,Washington D.C.,a36939ef-ea83-854a-faa3-0fac0e42d43c
d85328b6-be77-3448-28b0-9a933dcdb856,31202.0,38.91302117,-77.032008,14th & R St NW,Washington D.C.,a36939ef-ea83-854a-faa3-0fac0e42d43c
f6f62c28-e927-db48-6f62-e63a1a5356b5,31203.0,38.90851817,-77.03240133,14th & Rhode Island Ave NW,Washington D.C.,a36939ef-ea83-854a-faa3-0fac0e42d43c
8afd2973-f863-3958-ce75-f4ba60d6c766,31204.0,38.8962535,-77.0448255,20th & E St NW,Washington D.C.,7bd9e8a1-ff29-7d0e-4f2e-84fcb06dbee0
8cda80a3-4b45-2123-d17f-6494e8c2d219,31205.0,38.90070417,-77.0465005,21st & I St NW,Washington D.C.,7bd9e8a1-ff29-7d0e-4f2e-84fcb06dbee0
50806f01-7a1d-556c-b62c-228e40df7c9a,31206.0,38.89514333,-77.04376083,19th & E Street NW,Washington D.C.,7bd9e8a1-ff29-7d0e-4f2e-84fcb06dbee0
51423286-a6ec-c31f-3526-3b4519a2105c,31207.0,38.92478459,-77.02232748,Georgia Ave & Fairmont St NW,Washington D.C.,ec717f15-8895-787f-99c4-258bfc985000
c96fa758-02b0-87f8-06fa-adb10a248cff,31208.0,38.87637583,-77.00361517,M St & New Jersey Ave SE,Washington D.C.,558d2adb-7e5a-3930-cd39-e15808606af8
b9fad67e-4ba9-27c3-ecf4-5ccbfb8a99a2,31209.0,38.87489667,-77.00578367,1st & N St SE,Washington D.C.,bd953dc2-3cc2-1779-0825-c7cc67e84707
642a357c-7329-02f4-51fb-fcc798b8da9f,31211.0,38.897293,-77.05557,Kennedy Center,Washington D.C.,cc7c6d81-2d6f-2efc-4e61-3a365119cdcc
106ee2ab-101e-75eb-6607-b61550332cb8,31212.0,38.90566083,-77.047366,New Hampshire Ave & Ward Pl NW,Washington D.C.,a36939ef-ea83-854a-faa3-0fac0e42d43c
99f86c8d-f845-aed9-513d-d1a6e9d40f2b,31213.0,38.9026245,-77.03865133,17th & K St NW,Washington D.C.,7bd9e8a1-ff29-7d0e-4f2e-84fcb06dbee0
40041e00-1c82-3d9e-74b3-1bfbf8449560,31214.0,38.91200017,-77.0386975,17th & Corcoran St NW,Washington D.C.,a36939ef-ea83-854a-faa3-0fac0e42d43c
c725bd97-9e28-9761-c8fe-a5d73716e7ea,31215.0,38.902314,-77.059142,Georgetown Harbor / 30th St NW,Washington D.C.,cc7c6d81-2d6f-2efc-4e61-3a365119cdcc
de1bf0cd-8afc-5bee-e426-4c9ffade312d,31216.0,38.899632,-77.0318225,14th St & New York Ave NW,Washington D.C.,2547f19c-6bf8-4914-a6a5-bc9974a677c6
5b177a38-a96d-fb2c-780b-25d9b02d3504,31217.0,38.88627695,-77.028242,USDA / 12th & C St SW,Washington D.C.,fb368220-216d-27a2-3501-e088d6a34d3e
3534ccae-8aa6-7235-2ee7-af97425375be,31218.0,38.886266,-77.02234383,L'Enfant Plaza / 7th & C St SW,Washington D.C.,bd953dc2-3cc2-1779-0825-c7cc67e84707
5c47577b-3f12-d68e-32ff-d03d4eac98d6,31219.0,38.89292433,-77.026013,10th St & Constitution Ave NW,Washington D.C.,fb368220-216d-27a2-3501-e088d6a34d3e
16e3e380-47e1-a38b-d1ea-041814d4954e,31220.0,38.89476283,-77.046587,US Dept of State / Virginia Ave & 21st St NW,Washington D.C.,7bd9e8a1-ff29-7d0e-4f2e-84fcb06dbee0
172a4012-72a9-b8a4-c0d7-6560fbbe9381,31221.0,38.90489617,-77.04192467,18th & M St NW,Washington D.C.,7bd9e8a1-ff29-7d0e-4f2e-84fcb06dbee0
56c11669-a4ba-3161-9309-0287a6ea2981,31222.0,38.89880417,-77.03335404,New York Ave & 15th St NW,Washington D.C.,2547f19c-6bf8-4914-a6a5-bc9974a677c6
f772f8ea-63f6-66e0-3a38-9b09f0d3fa5c,31223.0,38.90557267,-77.02250217,Convention Center / 7th & M St NW,Washington D.C.,400db00d-d388-1a50-5805-6ed0980dc6ff
2fd2f792-53c6-17eb-0a82-66954e896a65,31224.0,38.903741,-77.0424521,18th & L St NW,Washington D.C.,7bd9e8a1-ff29-7d0e-4f2e-84fcb06dbee0
9439c746-d8dd-d2ef-caf0-78b051158de5,31225.0,38.90368367,-77.06271517,C & O Canal & Wisconsin Ave NW,Washington D.C.,cc7c6d81-2d6f-2efc-4e61-3a365119cdcc
3eefe734-4d84-e990-ebdd-b098e4bc6e82,31226.0,38.91648317,-77.0682885,34th St & Wisconsin Ave NW,Washington D.C.,21fdac3a-f325-ffbe-9065-6c8fbb4e5c11
9c842b6a-8b52-5b4f-19d7-b4035596dfde,31227.0,38.900283,-77.029822,13th St & New York Ave NW,Washington D.C.,2547f19c-6bf8-4914-a6a5-bc9974a677c6
179030da-9891-0052-cebc-c1ba943863a5,31228.0,38.8995255,-77.02315717,8th & H St NW,Washington D.C.,2547f19c-6bf8-4914-a6a5-bc9974a677c6
ceea590b-0537-3b76-385c-1b333ebebe3e,31229.0,38.915544,-77.038377,New Hampshire Ave & T St NW,Washington D.C.,14b9adb5-0c6d-ea3d-b85a-5cd22959fea3
449fd49b-1284-0ea1-66da-a3653e67026c,31230.0,38.898162,-77.027959,Metro Center / 12th & G St NW,Washington D.C.,2547f19c-6bf8-4914-a6a5-bc9974a677c6
baaad651-1227-932f-de18-27478d1bc13a,31231.0,38.894514,-77.03168767,14th & D St NW / Ronald Reagan Building,Washington D.C.,fb368220-216d-27a2-3501-e088d6a34d3e
0289eb06-a2a8-66b4-0581-f255133bb4c2,31232.0,38.897283,-77.022433,7th & F St NW / National Portrait Gallery,Washington D.C.,2547f19c-6bf8-4914-a6a5-bc9974a677c6
5bf3f74d-cacc-9ec8-c02f-c22a4a7347fa,31233.0,38.902061,-77.038322,17th & K St NW / Farragut Square,Washington D.C.,7bd9e8a1-ff29-7d0e-4f2e-84fcb06dbee0
dbeef77a-dcd6-9029-7805-87f07e465b19,31234.0,38.90868667,-77.04504767,20th & O St NW / Dupont South,Washington D.C.,a36939ef-ea83-854a-faa3-0fac0e42d43c
c71a5b11-805d-b06a-19d6-d73b2778507c,31235.0,38.892212,-77.0430825,19th St & Constitution Ave NW,Washington D.C.,7bd9e8a1-ff29-7d0e-4f2e-84fcb06dbee0
825f8542-13bd-488e-53fd-f07ccb8409d6,31236.0,38.907654,-77.07151249,37th & O St NW / Georgetown University,Washington D.C.,21fdac3a-f325-ffbe-9065-6c8fbb4e5c11
2df810b9-2c59-9859-aa4d-a822f3009a5c,31237.0,38.903778,-77.053485,25th St & Pennsylvania Ave NW,Washington D.C.,cc7c6d81-2d6f-2efc-4e61-3a365119cdcc
243bd888-fc22-22d2-2649-c1b0c6b5a1c6,31238.0,38.89804317,-77.03211167,14th & G St NW,Washington D.C.,2547f19c-6bf8-4914-a6a5-bc9974a677c6
4e3d4d0f-51dd-5d5c-dd94-6658d2511c38,31239.0,38.90580983,-77.04014783,Rhode Island & Connecticut Ave NW,Washington D.C.,a36939ef-ea83-854a-faa3-0fac0e42d43c
d5ae305b-83ac-fb7e-b596-41d21b5c56d3,31240.0,38.8840335,-77.04657,Ohio Dr & West Basin Dr SW / MLK & FDR Memorials,Washington D.C.,fb368220-216d-27a2-3501-e088d6a34d3e
20552f5f-4b22-20a4-9a15-a311eb5af9f9,31241.0,38.905876,-77.0325815,Thomas Circle,Washington D.C.,2547f19c-6bf8-4914-a6a5-bc9974a677c6
8ba56d34-2445-2ecf-34ec-f2ede4cd6075,31242.0,38.89935767,-77.0418645,18th St & Pennsylvania Ave NW,Washington D.C.,7bd9e8a1-ff29-7d0e-4f2e-84fcb06dbee0
c79d4440-0821-6b65-b8fe-2f4be91553a9,31243.0,38.88629083,-77.017701,4th & C St SW,Washington D.C.,bd953dc2-3cc2-1779-0825-c7cc67e84707
9f9f80d0-e730-cb28-d22f-02f350e9e079,31244.0,38.88412,-77.017445,4th & E St SW,Washington D.C.,bd953dc2-3cc2-1779-0825-c7cc67e84707
8d8e3b13-e83b-3ab1-ac15-3076cdc98666,31245.0,38.9127065,-77.02268717,7th & R St NW / Shaw Library,Washington D.C.,400db00d-d388-1a50-5805-6ed0980dc6ff
fca7cb5f-bf05-f8fa-f187-8d5fd739543b,31246.0,38.90509933,-77.056887,M St & Pennsylvania Ave NW,Washington D.C.,cc7c6d81-2d6f-2efc-4e61-3a365119cdcc
4c867062-2d9b-8ebf-3497-553cb0894f5a,31247.0,38.8885525,-77.032427,Jefferson Dr & 14th St SW,Washington D.C.,fb368220-216d-27a2-3501-e088d6a34d3e
0c6e5973-286b-ef29-8999-18a76ec15d38,31248.0,38.888774,-77.02882167,Smithsonian-National Mall / Jefferson Dr & 12th St SW,Washington D.C.,fb368220-216d-27a2-3501-e088d6a34d3e
3f4ed95a-aaf3-8c2f-dcb2-84f8b6febc3a,31249.0,38.879819,-77.0375355,Jefferson Memorial,Washington D.C.,fb368220-216d-27a2-3501-e088d6a34d3e
ae9c8563-107d-72d5-c71c-5cf140a980bd,31250.0,38.903584,-77.044789,20th & L St NW,Washington D.C.,7bd9e8a1-ff29-7d0e-4f2e-84fcb06dbee0
6e1fb6ad-cee9-a4fd-725a-9a5bf6a07500,31251.0,38.90371383,-77.02852833,12th & L St NW,Washington D.C.,2547f19c-6bf8-4914-a6a5-bc9974a677c6
707c70b4-8a97-b9d8-400e-67ed8c9cf440,31252.0,38.90133917,-77.04685717,21st St & Pennsylvania Ave NW,Washington D.C.,7bd9e8a1-ff29-7d0e-4f2e-84fcb06dbee0
02c8261b-740c-1a65-89be-4b4bd9ee50e2,31253.0,38.901781,-77.04337,19th & K St NW,Washington D.C.,7bd9e8a1-ff29-7d0e-4f2e-84fcb06dbee0
2be893f4-56b3-0574-d617-2adf654d479a,31254.0,38.90201417,-77.03383083,15th & K St NW,Washington D.C.,2547f19c-6bf8-4914-a6a5-bc9974a677c6
cb06718c-063f-a2b6-7c5c-483d420a4323,31255.0,38.90653233,-77.05152067,24th & N St NW,Washington D.C.,cc7c6d81-2d6f-2efc-4e61-3a365119cdcc
f9ef954e-6aab-cb78-eec1-754ca57d041e,31256.0,38.89585483,-77.026064,10th & E St NW,Washington D.C.,2547f19c-6bf8-4914-a6a5-bc9974a677c6
b11379a2-0ff4-4f65-04d7-59889213147b,31257.0,38.90088,-77.048911,22nd & I St NW / Foggy Bottom,Washington D.C.,7bd9e8a1-ff29-7d0e-4f2e-84fcb06dbee0
97f2a702-2366-9676-947f-81435add92d1,31258.0,38.888255,-77.049437,Lincoln Memorial,Washington D.C.,7bd9e8a1-ff29-7d0e-4f2e-84fcb06dbee0
fbb41d14-4255-3a33-2374-75e120087497,31259.0,38.89470067,-77.0451775,20th St & Virginia Ave NW,Washington D.C.,7bd9e8a1-ff29-7d0e-4f2e-84fcb06dbee0
906704c3-65d6-0b6e-46e3-db95d4350b28,31260.0,38.896104,-77.049882,23rd & E St NW ,Washington D.C.,7bd9e8a1-ff29-7d0e-4f2e-84fcb06dbee0
16d8e80e-9cc9-30d3-2c13-9c1966ad51fd,31261.0,38.89388766,-77.044393,Virginia Ave & C St NW,Washington D.C.,7bd9e8a1-ff29-7d0e-4f2e-84fcb06dbee0
2d75c25d-01ea-0639-7c6a-47a73bc8996b,31262.0,38.89753683,-77.0270825,11th & F St NW,Washington D.C.,2547f19c-6bf8-4914-a6a5-bc9974a677c6
e49df6bb-803a-f506-5136-bf628758ff4d,31263.0,38.90255317,-77.02650933,10th & K St NW,Washington D.C.,2547f19c-6bf8-4914-a6a5-bc9974a677c6
ee1b8cc4-7035-8a27-eba1-a9d3a61a59e3,31264.0,38.894573,-77.02006717,6th St & Indiana Ave NW,Washington D.C.,fb368220-216d-27a2-3501-e088d6a34d3e
39c97ab1-bb3e-780f-a39c-c4b2afbf5310,31265.0,38.90084083,-77.018695,5th St & Massachusetts Ave NW,Washington D.C.,2547f19c-6bf8-4914-a6a5-bc9974a677c6
afdbe9d2-7ebd-0e05-501f-c6f43d061f79,31266.0,38.9055785,-77.02732,11th & M St NW,Washington D.C.,2547f19c-6bf8-4914-a6a5-bc9974a677c6
b67d153d-399d-ab3c-f4df-c9a57a946602,31267.0,38.90809867,-77.038611,17th St & Massachusetts Ave NW,Washington D.C.,a36939ef-ea83-854a-faa3-0fac0e42d43c
9c7d498a-8f76-dc87-5642-74036988f668,31268.0,38.91655567,-77.028145,12th & U St NW,Washington D.C.,400db00d-d388-1a50-5805-6ed0980dc6ff
a745ba6d-eaee-d19b-ba6c-ac4ae82d2fef,31269.0,38.8873215,-77.001955,3rd St & Pennsylvania Ave SE,Washington D.C.,558d2adb-7e5a-3930-cd39-e15808606af8
382f21e4-a57b-7700-f8ec-2d3446752b5c,31270.0,38.894483,-77.023571,8th & D St NW,Washington D.C.,fb368220-216d-27a2-3501-e088d6a34d3e
c360b3b7-1251-310b-ebee-35210c56a92d,31271.0,38.892275,-77.013917,Constitution Ave & 2nd St NW/DOL,Washington D.C.,fb368220-216d-27a2-3501-e088d6a34d3e
5e6279db-e09e-dd5a-a531-9f4782fe3a4a,31272.0,38.886978,-77.013769,Washington & Independence Ave SW/HHS,Washington D.C.,bd953dc2-3cc2-1779-0825-c7cc67e84707
cadff918-c41a-66d9-82fa-4d7a28d2e08e,31273.0,38.87839433,-77.03026867,Hains Point/Buckeye & Ohio Dr SW,Washington D.C.,bd953dc2-3cc2-1779-0825-c7cc67e84707
4c78c7ab-4fd2-4206-342f-22bae20cea4a,31274.0,38.898243,-77.02623546,10th & G St NW,Washington D.C.,2547f19c-6bf8-4914-a6a5-bc9974a677c6
8d64b3ad-d957-7b6b-4cb0-5ec1b14b69dc,31275.0,38.9016475,-77.05118917,New Hampshire Ave & 24th St NW,Washington D.C.,cc7c6d81-2d6f-2efc-4e61-3a365119cdcc
b386d25c-b387-42ad-2a49-26f05f221dfc,31276.0,38.90362533,-77.035125,15th & L St NW,Washington D.C.,7bd9e8a1-ff29-7d0e-4f2e-84fcb06dbee0
15c0cdd5-9836-404c-76fb-b6edbc85e5de,31277.0,38.898301,-77.039643,17th & G St NW,Washington D.C.,7bd9e8a1-ff29-7d0e-4f2e-84fcb06dbee0
9b29b54b-e587-dd21-1f8c-e97adb34fa8d,31278.0,38.91256883,-77.0418675,18th & R St NW,Washington D.C.,a36939ef-ea83-854a-faa3-0fac0e42d43c
60900772-923c-4e5d-8392-4f05f5c7b9aa,31279.0,38.89819633,-77.04335117,19th & G St NW,Washington D.C.,7bd9e8a1-ff29-7d0e-4f2e-84fcb06dbee0
6d3fad4c-4027-0546-27e1-25a42d206ada,31280.0,38.913625,-77.0271585,11th & S St NW,Washington D.C.,400db00d-d388-1a50-5805-6ed0980dc6ff
b8378d82-91cb-e386-f112-cfd037b5dbac,31281.0,38.90837,-77.02305933,8th & O St NW,Washington D.C.,400db00d-d388-1a50-5805-6ed0980dc6ff
7eba0352-0d58-9a58-c842-c19ac1fbe94c,31282.0,38.912652,-77.036278,16th & R St NW,Washington D.C.,a36939ef-ea83-854a-faa3-0fac0e42d43c
a310a849-b797-5b28-64c3-71cfae7fba11,31283.0,38.90356717,-77.0318075,14th & L St NW,Washington D.C.,2547f19c-6bf8-4914-a6a5-bc9974a677c6
d87064fc-83da-b265-624c-4b62591550ff,31284.0,38.893511,-77.04156867,18th & C St NW,Washington D.C.,7bd9e8a1-ff29-7d0e-4f2e-84fcb06dbee0
fe8b2b79-bada-7947-8b52-30ed2a30363b,31285.0,38.90928883,-77.048728,22nd & P ST NW,Washington D.C.,a36939ef-ea83-854a-faa3-0fac0e42d43c
1724925f-fb31-4da0-8630-43d70a6be26c,31286.0,38.90798267,-77.0270075,11th & O St NW,Washington D.C.,400db00d-d388-1a50-5805-6ed0980dc6ff
19de2ded-a0e2-0045-4153-bbc7ced5669f,31287.0,38.88432272,-77.0260265,10th St & L'Enfant Plaza SW,Washington D.C.,bd953dc2-3cc2-1779-0825-c7cc67e84707
156eab79-e9b1-61f4-bca5-f87b447c999d,31288.0,38.89045333,-77.01737833,4th St & Madison Dr NW,Washington D.C.,fb368220-216d-27a2-3501-e088d6a34d3e
f81f5c80-239d-c599-f98d-dc84f59dc887,31289.0,38.89050483,-77.04942233,Henry Bacon Dr & Lincoln Memorial Circle NW,Washington D.C.,7bd9e8a1-ff29-7d0e-4f2e-84fcb06dbee0
f78047cf-d788-c7cc-9ded-54fdc69806ea,31290.0,38.888097,-77.038325,17th St & Independence Ave SW,Washington D.C.,fb368220-216d-27a2-3501-e088d6a34d3e
14fe7ebc-b34d-ec74-afc6-ee6fa8e33c94,31291.0,38.90107317,-77.03479667,Vermont Ave & I St NW,Washington D.C.,2547f19c-6bf8-4914-a6a5-bc9974a677c6
3db18a28-ec9f-6fbf-d9d9-320e71ef5e7a,31292.0,38.89235717,-77.048947,22nd St & Constitution Ave NW,Washington D.C.,7bd9e8a1-ff29-7d0e-4f2e-84fcb06dbee0
f0a3a668-61e1-e80d-d9db-30aff8a10e70,31293.0,38.9026815,-77.06020017,Thomas Jefferson St NW & Water/K St NW,Washington D.C.,cc7c6d81-2d6f-2efc-4e61-3a365119cdcc
65b184f7-6ed3-f30b-e746-ebebcd7e80a2,31294.0,38.88345,-77.021741,7th & E St SW,Washington D.C.,bd953dc2-3cc2-1779-0825-c7cc67e84707
70293815-5351-d2c1-e8fb-46b52a2d551f,31295.0,38.90541283,-77.065246,Potomac & M St NW,Washington D.C.,cc7c6d81-2d6f-2efc-4e61-3a365119cdcc
7ceb5fb4-e8ac-abff-9f55-c5fc20572aeb,31296.0,38.924088,-77.040787,Columbia & Ontario Rd NW,Washington D.C.,14b9adb5-0c6d-ea3d-b85a-5cd22959fea3
6e671698-1e83-0596-3646-9fabf59cd100,31297.0,38.89846,-77.05305219,Virginia Ave & 25th St NW,Washington D.C.,cc7c6d81-2d6f-2efc-4e61-3a365119cdcc
e8c7a01d-6881-5fda-88b7-cc6b99c61aa8,31298.0,38.90531,-77.034674,15th & M St NW,Washington D.C.,a36939ef-ea83-854a-faa3-0fac0e42d43c
47158a7e-4ba4-4898-a917-2a051e3b25e5,31299.0,38.91259333,-77.04570817,Connecticut Ave & R St NW,Washington D.C.,a36939ef-ea83-854a-faa3-0fac0e42d43c
8f332483-bfe4-440e-60fc-47fa3f8b1baa,31300.0,38.944551,-77.063896,Van Ness Metro / UDC,Washington D.C.,69f0441e-c9ba-fe62-e580-c35ea161d909
8742ced2-3099-44e2-f5b5-b9340106bb05,31301.0,38.938736,-77.087171,Ward Circle / American University,Washington D.C.,5f7cc5d8-6f3f-0240-2b37-d8171b4c24c2
07e30f11-0562-8748-943e-c25a70536e9b,31302.0,38.9348605,-77.07278333,Wisconsin Ave & Newark St NW,Washington D.C.,69f0441e-c9ba-fe62-e580-c35ea161d909
3e036333-9b0a-6817-f91c-85fda0a59518,31303.0,38.94751883,-77.079382,Tenleytown / Wisconsin Ave & Albemarle St NW,Washington D.C.,5f7cc5d8-6f3f-0240-2b37-d8171b4c24c2
2c400b95-34e4-1e75-42a9-5d35d5d8575d,31304.0,38.9225445,-77.07036867,36th & Calvert St NW / Glover Park,Washington D.C.,21fdac3a-f325-ffbe-9065-6c8fbb4e5c11
335082dc-8ad6-c1c4-25fe-3a1848e772ba,31305.0,38.933626,-77.05763117,Connecticut Ave & Macomb St NW / Cleveland Park,Washington D.C.,69f0441e-c9ba-fe62-e580-c35ea161d909
c1e6415a-95f2-ee55-4fa6-961145f21e94,31306.0,38.92256467,-77.0773305,39th & Calvert St NW / Stoddert,Washington D.C.,21fdac3a-f325-ffbe-9065-6c8fbb4e5c11
72470add-aefb-a2ae-d515-36644039d142,31307.0,38.930282,-77.055599,3000 Connecticut Ave NW / National Zoo,Washington D.C.,69f0441e-c9ba-fe62-e580-c35ea161d909
dae720b2-cf03-fd21-dc7a-4beeca84ebca,31308.0,38.943809,-77.077078,39th & Veazey St NW,Washington D.C.,5f7cc5d8-6f3f-0240-2b37-d8171b4c24c2
5b616e42-8b9d-d3d4-2b00-b570f93ee7cc,31309.0,38.954812,-77.082426,Fessenden St & Wisconsin Ave NW,Washington D.C.,5f7cc5d8-6f3f-0240-2b37-d8171b4c24c2
1f2e490c-db0f-0126-6b82-ed5c7da5ad52,31310.0,38.9549815,-77.07004533,Connecticut & Nebraska Ave NW,Washington D.C.,69f0441e-c9ba-fe62-e580-c35ea161d909
e1018cc5-920f-3663-357d-6f2ec4e199a1,31312.0,38.908481,-77.06377067,Wisconsin Ave & O St NW,Washington D.C.,cc7c6d81-2d6f-2efc-4e61-3a365119cdcc
cf80f751-48b7-5541-346f-3293621d1733,31313.0,38.94110833,-77.06197724,Connecticut Ave & Tilden St NW,Washington D.C.,69f0441e-c9ba-fe62-e580-c35ea161d909
062ebc92-cebb-898a-e76d-b5ef1baf02cf,31314.0,38.90368033,-77.067529,34th & Water St NW,Washington D.C.,cc7c6d81-2d6f-2efc-4e61-3a365119cdcc
03621f97-bf4c-c645-91be-34eb1e39ef8e,31315.0,38.964532,-77.07517683,Connecticut Ave & McKinley St NW,Washington D.C.,6baf71d7-d840-7b1a-0f0b-97522634f16f
ac859f8f-f706-a832-4be1-b2488b97ef45,31316.0,38.946182,-77.08059,Yuma St & Tenley Circle NW,Washington D.C.,5f7cc5d8-6f3f-0240-2b37-d8171b4c24c2
a63e0c32-f938-97b0-b96c-c27ac2d532fa,31317.0,38.958267,-77.0846605,Wisconsin Ave & Ingomar St NW,Washington D.C.,5f7cc5d8-6f3f-0240-2b37-d8171b4c24c2
5fac971a-8018-5844-133f-3b0a22f7d343,31318.0,38.947112,-77.06516083,Connecticut Ave & Yuma St NW,Washington D.C.,69f0441e-c9ba-fe62-e580-c35ea161d909
6fea51ca-4fae-2cf5-ce33-dd7092947d94,31319.0,38.949813,-77.080217,Wisconsin Ave & Brandywine St NW,Washington D.C.,5f7cc5d8-6f3f-0240-2b37-d8171b4c24c2
c234472f-5b58-796a-ad61-1a3e80c6bcbd,31320.0,38.936254,-77.08721233,American University East Campus,Washington D.C.,5f7cc5d8-6f3f-0240-2b37-d8171b4c24c2
1fb7f628-0037-5c0d-52dd-34d68744d3c0,31321.0,38.892208,-77.03333817,15th St & Constitution Ave NW,Washington D.C.,fb368220-216d-27a2-3501-e088d6a34d3e
59a78b13-7315-d969-b7cc-ba58713b831b,31322.0,38.917036,-77.09579933,48th Pl & MacArthur Blvd NW,Washington D.C.,21fdac3a-f325-ffbe-9065-6c8fbb4e5c11
56e0a246-663f-423b-8a0f-42834e0751d7,31323.0,38.92338733,-77.05198133,Woodley Park Metro / Calvert St & Connecticut Ave NW,Washington D.C.,14b9adb5-0c6d-ea3d-b85a-5cd22959fea3
92484194-aef4-259c-bb2b-92c3c87868fa,31324.0,38.91125367,-77.04183217,18th & New Hampshire Ave NW,Washington D.C.,a36939ef-ea83-854a-faa3-0fac0e42d43c
eaf5c033-a5cd-95e7-1cf3-d1797e0750ea,31325.0,38.91261359,-77.07450433,Reservoir Rd & 38th St NW,Washington D.C.,21fdac3a-f325-ffbe-9065-6c8fbb4e5c11
8e903fd9-3433-b60c-61e4-06a660a7a7b7,31326.0,38.90962417,-77.08564639,Hardy Rec Center,Washington D.C.,21fdac3a-f325-ffbe-9065-6c8fbb4e5c11
a2b249ab-4712-2faa-fead-3bed00fdfeae,31327.0,38.910674,-77.03208333,14th & Q St NW,Washington D.C.,a36939ef-ea83-854a-faa3-0fac0e42d43c
bd1296cd-e1b4-a960-b8e7-df9b992149e8,31328.0,38.89830174,-77.04694933,21st St & G st NW,Washington D.C.,7bd9e8a1-ff29-7d0e-4f2e-84fcb06dbee0
32e9c069-82ce-49de-ba77-25a3d454f36d,31330.0,38.90979983,-77.038566,17th & P St NW,Washington D.C.,a36939ef-ea83-854a-faa3-0fac0e42d43c
99d026a7-762a-2ba5-ec5d-f2c7fcad3888,31331.0,38.927294,-77.103662,Arizona Ave & MacArthur Blvd NW,Washington D.C.,5f7cc5d8-6f3f-0240-2b37-d8171b4c24c2
effe76e0-68b1-f3c9-8454-6026d5a7eb2e,31332.0,38.9180585,-77.027171,11th & V St NW,Washington D.C.,400db00d-d388-1a50-5805-6ed0980dc6ff
fcd26dad-fcd2-cf1e-b64e-172fbea01ca0,31333.0,38.939674,-77.075277,Wisconsin Ave & Rodman St NW,Washington D.C.,5f7cc5d8-6f3f-0240-2b37-d8171b4c24c2
730b19ec-2b99-9f07-b3f0-b94c4e2a89f5,31400.0,38.93668393,-77.024181,Georgia & New Hampshire Ave NW,Washington D.C.,ec717f15-8895-787f-99c4-258bfc985000
32864238-87ec-be86-ab39-20349eba8775,31401.0,38.93737383,-77.03286433,14th St & Spring Rd NW,Washington D.C.,ec717f15-8895-787f-99c4-258bfc985000
adb55556-00e6-a305-86b4-6f015c03151c,31402.0,38.94763033,-77.0328705,14th St Heights / 14th & Crittenden St NW,Washington D.C.,ec08693c-7401-f5ce-2425-d75a4b78dc3d
f86668c1-6d05-c818-9450-085b63a029a5,31403.0,38.95655555,-77.01981425,5th & Kennedy St NW,Washington D.C.,ec08693c-7401-f5ce-2425-d75a4b78dc3d
9f22ce0a-dc7a-9283-5604-c3b667be9998,31404.0,38.94166883,-77.02514383,9th & Upshur St NW,Washington D.C.,ec08693c-7401-f5ce-2425-d75a4b78dc3d
b312ad6f-bbdc-55a2-f977-edf4959d133d,31405.0,38.94964517,-77.027333,Georgia Ave & Emerson St NW,Washington D.C.,ec08693c-7401-f5ce-2425-d75a4b78dc3d
1157c8b3-bfaf-9e2f-f7ad-c0aee5dd6001,31406.0,38.94242483,-77.0327395,14th & Upshur St NW,Washington D.C.,ec08693c-7401-f5ce-2425-d75a4b78dc3d
3f64c50c-beea-ac97-fcd5-8c0f7e21b8aa,31407.0,38.956432,-77.03298133,14th St & Colorado Ave NW,Washington D.C.,ec08693c-7401-f5ce-2425-d75a4b78dc3d
4a77814e-a614-2e5b-f78d-9952a3ee54d4,31408.0,38.9751885,-77.01692683,Takoma Metro,Washington D.C.,2b56955d-da2d-3b3d-9ed2-aa0cffd21f09
b8a61715-6831-15a8-0551-98c0a1326797,31411.0,38.961339,-77.027855,Georgia & Missouri Ave NW,Washington D.C.,ec08693c-7401-f5ce-2425-d75a4b78dc3d
c76330af-a23c-4b27-27f5-2fa9a117511f,31412.0,38.957418,-77.00229383,3rd St & Riggs Rd NE,Washington D.C.,ec08693c-7401-f5ce-2425-d75a4b78dc3d
452fac9a-c850-320a-65b6-99ecefe6f675,31413.0,38.969903,-77.016574,3rd & Underwood St NW,Washington D.C.,2b56955d-da2d-3b3d-9ed2-aa0cffd21f09
12cb2f3f-c47a-ddc9-2d9b-4f22d8a50636,31414.0,38.967505,-77.027976,Georgia Ave & Piney Branch Rd NW,Washington D.C.,2b56955d-da2d-3b3d-9ed2-aa0cffd21f09
0297c0d6-9aff-956c-c6ad-0327d0b93207,31415.0,38.95674,-77.02791,Georgia Ave & Kennedy St NW,Washington D.C.,ec08693c-7401-f5ce-2425-d75a4b78dc3d
cc5d375a-43bb-ba66-e9a4-13ca59758f83,31416.0,38.9694375,-77.033509,14th St & Luzon Ave NW,Washington D.C.,2b56955d-da2d-3b3d-9ed2-aa0cffd21f09
af5e490b-dfba-aafa-6940-776cb540cce4,31417.0,38.94794817,-77.02154964,Kansas Ave & Sherman Cr NW,Washington D.C.,ec08693c-7401-f5ce-2425-d75a4b78dc3d
764a44e3-26ee-0eac-4dbd-3dc98b53c16b,31418.0,38.951594,-77.012808,New Hampshire & Gallatin St NW,Washington D.C.,ec08693c-7401-f5ce-2425-d75a4b78dc3d
2b6c5763-7c0b-03ee-4264-d159d53dde5e,31419.0,38.9320365,-77.023519,Georgia Ave & Morton St NW,Washington D.C.,ec717f15-8895-787f-99c4-258bfc985000
45547d9d-0b9e-8d4d-82a4-c12e779409b9,31420.0,38.942146,-77.038688,17th & Upshur St NW,Washington D.C.,ec717f15-8895-787f-99c4-258bfc985000
9733ef95-bea7-c879-193f-d24d82a1c54c,31421.0,38.94197133,-77.01832433,Grant Circle,Washington D.C.,ec08693c-7401-f5ce-2425-d75a4b78dc3d
1126d71a-5aec-e68f-11db-6acf6c2f5ecc,31422.0,38.96577499,-77.06862643,Broad Branch Rd & Northampton St NW,Washington D.C.,6baf71d7-d840-7b1a-0f0b-97522634f16f
2a04ff67-050d-c58c-7146-99bda826e5f1,31424.0,38.95366314,-77.02561319,9th & Ingraham St NW,Washington D.C.,ec08693c-7401-f5ce-2425-d75a4b78dc3d
29606598-f235-62b7-b5d2-8dee81d57930,31500.0,38.9190325,-77.000659,4th & W St NE,Washington D.C.,400db00d-d388-1a50-5805-6ed0980dc6ff
a2cf179f-66e4-7927-17d2-59adb0c12c60,31501.0,38.933668,-76.991016,12th & Newton St NE,Washington D.C.,f5cb2afc-741b-324d-85ae-8770f9dba1db
4ded5faa-9ae0-e1b9-469a-8a20b05c4a59,31503.0,38.91250783,-77.01345217,Florida Ave & R St NW,Washington D.C.,400db00d-d388-1a50-5805-6ed0980dc6ff
3cbb5615-352c-5f80-8731-16f03579c67e,31504.0,38.9324569,-76.993534,10th & Monroe St NE,Washington D.C.,f5cb2afc-741b-324d-85ae-8770f9dba1db
118cc43e-44e1-b856-557d-728ce2d28da8,31505.0,38.910935,-77.004984,Eckington Pl & Q St NE,Washington D.C.,400db00d-d388-1a50-5805-6ed0980dc6ff
e90c0722-d4a7-4958-b2fe-7205132ba600,31506.0,38.91536217,-77.012289,1st & Rhode Island Ave NW,Washington D.C.,400db00d-d388-1a50-5805-6ed0980dc6ff
77cab1f9-5e42-e3e0-a8a6-217585f049fe,31507.0,38.928743,-77.012457,1st & Washington Hospital Center NW,Washington D.C.,ec717f15-8895-787f-99c4-258bfc985000
0cbbeab0-bc9a-0e0c-8ec2-361582f2e770,31508.0,38.90508433,-76.99438583,Gallaudet / 8th St & Florida Ave NE,Washington D.C.,5154ef5f-bac0-d757-b057-c1627cf7fcf6
bc2e9ff5-a72f-6600-4c00-15082b265442,31509.0,38.912659,-77.017669,New Jersey Ave & R St NW,Washington D.C.,400db00d-d388-1a50-5805-6ed0980dc6ff
8e65e4cf-d0a4-10da-ff11-dc91b6a3ce92,31510.0,38.927095,-76.978924,18th St & Rhode Island Ave NE,Washington D.C.,78573797-4a80-7546-4627-31417aa286ac
bd6679c0-9c13-17a3-5b19-16cd450f0864,31511.0,38.92862083,-76.990955,12th & Irving St NE,Washington D.C.,f5cb2afc-741b-324d-85ae-8770f9dba1db
6653c3b7-8fa0-9fa2-647e-c1543b6bd0a4,31512.0,38.903732,-76.987211,Neal St & Trinidad Ave NE,Washington D.C.,5154ef5f-bac0-d757-b057-c1627cf7fcf6
427005f6-ca2e-3611-7bce-c85d2c1ffacc,31513.0,38.918155,-77.00474967,Rhode Island Ave & V St NE,Washington D.C.,400db00d-d388-1a50-5805-6ed0980dc6ff
b74f3410-5463-852d-9c43-4723dde138d8,31514.0,38.92742217,-76.99725667,Hamlin & 7th St NE,Washington D.C.,f5cb2afc-741b-324d-85ae-8770f9dba1db
9c25b2db-f6ba-d673-423e-96d038e9de81,31515.0,38.952369,-77.002721,Fort Totten Metro,Washington D.C.,ec08693c-7401-f5ce-2425-d75a4b78dc3d
a92cd2de-d802-cb08-3e85-b0a9b4e9a806,31516.0,38.92061767,-76.995876,Rhode Island Ave Metro,Washington D.C.,5154ef5f-bac0-d757-b057-c1627cf7fcf6
de518343-e63e-a3d6-da0d-bc7807d11b6b,31517.0,38.907908,-76.99707,Union Market,Washington D.C.,5154ef5f-bac0-d757-b057-c1627cf7fcf6
ed9140c0-5108-0deb-6710-b0e79f5904a6,31518.0,38.915604,-76.983683,New York Ave & Hecht Ave NE,Washington D.C.,5154ef5f-bac0-d757-b057-c1627cf7fcf6
3f98e0ee-c2f7-c23f-eee1-33ea6e883110,31519.0,38.908643,-77.0124375,1st & O St NW,Washington D.C.,400db00d-d388-1a50-5805-6ed0980dc6ff
1291f006-309d-57ed-44e3-2dbdc910c201,31520.0,38.91261433,-76.97202183,24th & R St NE / National Arboretum,Washington D.C.,5154ef5f-bac0-d757-b057-c1627cf7fcf6
defd5670-2a66-b259-bb79-8e9ba03a1915,31521.0,38.93285483,-76.979563,18th & Monroe St NE,Washington D.C.,78573797-4a80-7546-4627-31417aa286ac
94d8cd47-718e-3baf-9442-f362f919cb32,31522.0,38.9146185,-77.00362017,2nd St & Seaton Pl NE,Washington D.C.,400db00d-d388-1a50-5805-6ed0980dc6ff
25ef2114-ba6e-736c-eed4-b1f0e9c3deee,31524.0,38.90735067,-76.986886,Montello Ave & Holbrook Terr NE,Washington D.C.,5154ef5f-bac0-d757-b057-c1627cf7fcf6
759aaeee-4311-62a4-f20a-b3059b33d947,31525.0,38.906299,-76.983221,Trinidad Rec Center,Washington D.C.,5154ef5f-bac0-d757-b057-c1627cf7fcf6
c7495df9-237c-9540-299b-f22d86cec133,31527.0,38.91290267,-77.0089805,North Capitol & R St NE,Washington D.C.,400db00d-d388-1a50-5805-6ed0980dc6ff
70d07eba-b73b-6062-e4d4-ad86235a63d5,31528.0,38.93871267,-76.997226,John McCormack Rd NE,Washington D.C.,f5cb2afc-741b-324d-85ae-8770f9dba1db
6697f21e-c05a-32a3-4f4c-8db65c706106,31529.0,38.92397967,-77.00210033,Edgewood Rec Center,Washington D.C.,f5cb2afc-741b-324d-85ae-8770f9dba1db
34c8d03a-b7d9-365c-1da7-7d913d90fd27,31530.0,38.910993,-76.985854,Capitol Ave & Kendall St NE,Washington D.C.,5154ef5f-bac0-d757-b057-c1627cf7fcf6
11774618-4e34-fa77-ae70-24edb7ee1a9a,31531.0,38.9221855,-76.996127,MBT & Bryant St NE,Washington D.C.,5154ef5f-bac0-d757-b057-c1627cf7fcf6
524550a4-65a2-4e8a-3a45-48f21b3c137b,31532.0,38.90701867,-77.00107367,4th & Florida Ave NE,Washington D.C.,400db00d-d388-1a50-5805-6ed0980dc6ff
f48fe7d3-1997-e8f3-edb9-24d87e0b6723,31533.0,38.91121359,-77.00225651,Tanner Park,Washington D.C.,400db00d-d388-1a50-5805-6ed0980dc6ff
cf39efd7-0e2a-f641-0b83-da502fcf9616,31534.0,38.9321475,-76.996251,7th & Monroe St NE,Washington D.C.,f5cb2afc-741b-324d-85ae-8770f9dba1db
c09f025e-e38d-62a7-05f5-e71b98f6a644,31535.0,38.92244283,-76.9929025,10th St & Rhode Island Ave NE,Washington D.C.,5154ef5f-bac0-d757-b057-c1627cf7fcf6
7e94f5ab-08e2-fad3-aeec-b544377054cf,31536.0,38.9072135,-76.999167,5th & Morse St NE,Washington D.C.,5154ef5f-bac0-d757-b057-c1627cf7fcf6
b9559250-d09d-fa6c-874e-263fb4345622,31537.0,38.92164983,-76.955772,Fort Lincoln Dr & 33rd Pl NE,Washington D.C.,78573797-4a80-7546-4627-31417aa286ac
7139bed1-9cf9-4bc1-e31e-1292f6d0ac1d,31539.0,38.921986,-76.960696,South Dakota Ave & 33rd St NE,Washington D.C.,78573797-4a80-7546-4627-31417aa286ac
464a8296-d67e-8ecf-a9b5-76d757aa5ae1,31540.0,38.907073,-77.002109,3rd & N St NE,Washington D.C.,400db00d-d388-1a50-5805-6ed0980dc6ff
2c354a1b-b150-a78d-9cfd-717d1e39a54c,31541.0,38.937849,-76.993509,10th & Quincy St NE / Turkey Thicket Rec,Washington D.C.,f5cb2afc-741b-324d-85ae-8770f9dba1db
3bb42d9d-6653-1daf-38d9-431f18610c9f,31600.0,38.90295333,-77.019214,5th & K St NW,Washington D.C.,400db00d-d388-1a50-5805-6ed0980dc6ff
c02823ec-60bd-adce-7327-01337eb9d1c8,31602.0,38.930591,-77.0314605,Park Rd & Holmead Pl NW,Washington D.C.,ec717f15-8895-787f-99c4-258bfc985000
3c593e7f-3b51-d375-f933-3f742b2935f2,31603.0,38.90537967,-77.00583617,1st & M St NE,Washington D.C.,400db00d-d388-1a50-5805-6ed0980dc6ff
8c09786b-766b-5e3c-489c-baffd1f559af,31604.0,38.899273,-77.015289,3rd & H St NW,Washington D.C.,400db00d-d388-1a50-5805-6ed0980dc6ff
73a26890-363f-89c2-63bc-6601947678f5,31605.0,38.88513317,-77.00224683,3rd & D St SE,Washington D.C.,558d2adb-7e5a-3930-cd39-e15808606af8
7f0fad3b-5482-909f-4204-1769b705fbf3,31606.0,38.88033883,-76.98623683,Potomac & Pennsylvania Ave SE,Washington D.C.,558d2adb-7e5a-3930-cd39-e15808606af8
36beb903-e8d4-24ee-1c66-eed297f7634b,31607.0,38.88290633,-76.98790669,13th & E St SE,Washington D.C.,558d2adb-7e5a-3930-cd39-e15808606af8
03f20791-0bd4-f091-142f-ab55fe909103,31608.0,38.87922567,-76.99524867,8th & Eye St SE / Barracks Row,Washington D.C.,558d2adb-7e5a-3930-cd39-e15808606af8
7afb6462-db8a-e021-0156-9570cc2534b4,31609.0,38.8786936,-77.023169,Maine Ave & 7th St SW,Washington D.C.,bd953dc2-3cc2-1779-0825-c7cc67e84707
d910ddd7-6215-f679-e38a-59aa51cfa14e,31610.0,38.88690283,-76.99682933,Eastern Market / 7th & North Carolina Ave SE,Washington D.C.,558d2adb-7e5a-3930-cd39-e15808606af8
322578eb-eb39-1d06-4986-f3a6948b82b1,31611.0,38.90042674,-76.988361,13th & H St NE,Washington D.C.,5154ef5f-bac0-d757-b057-c1627cf7fcf6
d3005630-e149-a837-28fa-361a6661b877,31612.0,38.89479017,-76.99591577,D St & Maryland Ave NE,Washington D.C.,558d2adb-7e5a-3930-cd39-e15808606af8
cb320db8-26fb-5e56-a563-2a15c23105d9,31613.0,38.88407033,-76.99532083,Eastern Market Metro / Pennsylvania Ave & 8th St SE,Washington D.C.,558d2adb-7e5a-3930-cd39-e15808606af8
63243e53-03e2-e7c4-07cc-0424e9e6ed7c,31615.0,38.89992133,-76.998492,6th & H St NE,Washington D.C.,5154ef5f-bac0-d757-b057-c1627cf7fcf6
8ae63ab1-aa31-1156-e055-af1c252a66d8,31616.0,38.90035083,-77.00219883,3rd & H St NE,Washington D.C.,400db00d-d388-1a50-5805-6ed0980dc6ff
4111329a-6126-3fdd-9093-11ed0e9f654f,31617.0,38.900413,-76.982872,Bladensburg Rd & Benning Rd NE,Washington D.C.,5154ef5f-bac0-d757-b057-c1627cf7fcf6
a6f38e3e-767f-e953-145b-523821464b6d,31618.0,38.88990217,-77.00041083,4th & East Capitol St NE,Washington D.C.,558d2adb-7e5a-3930-cd39-e15808606af8
03b27030-e7f5-24f3-4dab-b96dd708f3a0,31619.0,38.890432,-76.98841683,Lincoln Park / 13th & East Capitol St NE ,Washington D.C.,558d2adb-7e5a-3930-cd39-e15808606af8
8660194d-0f93-fb05-8977-8fb7091489cd,31620.0,38.897222,-77.0194225,5th & F St NW,Washington D.C.,2547f19c-6bf8-4914-a6a5-bc9974a677c6
eef20845-0af5-e8d2-2101-3eefd733230a,31621.0,38.895344,-77.016106,4th & D St NW / Judiciary Square,Washington D.C.,2547f19c-6bf8-4914-a6a5-bc9974a677c6
6eb8f85f-1e10-553b-c7e2-1846460a02ec,31622.0,38.89477067,-76.987633,13th & D St NE,Washington D.C.,558d2adb-7e5a-3930-cd39-e15808606af8
7fe9da20-0712-4b2f-30ab-1c2e174e3f4b,31623.0,38.89696,-77.00497233,Columbus Circle / Union Station,Washington D.C.,400db00d-d388-1a50-5805-6ed0980dc6ff
477e4a80-be9f-0a63-215c-1c0ba3340d96,31624.0,38.89743867,-77.009888,North Capitol St & F St NW,Washington D.C.,400db00d-d388-1a50-5805-6ed0980dc6ff
312218d0-d87a-bbff-d12f-f4bfafd03fb9,31625.0,38.88116667,-77.001832,3rd & G St SE,Washington D.C.,558d2adb-7e5a-3930-cd39-e15808606af8
546e197b-63c3-817c-7290-4d18a9bb6dcb,31626.0,38.88732,-76.98357617,15th St & Massachusetts Ave SE,Washington D.C.,558d2adb-7e5a-3930-cd39-e15808606af8
42850da8-f837-5d93-4499-e3afa18d58b8,31627.0,38.90540983,-77.00225167,3rd & M St NE,Washington D.C.,400db00d-d388-1a50-5805-6ed0980dc6ff
3ed43ab3-3e3b-4290-a2b7-3a66a4401dab,31628.0,38.8786485,-77.005948,1st & I St SE,Washington D.C.,bd953dc2-3cc2-1779-0825-c7cc67e84707
c9b8056f-ef67-09e9-9682-40ef0f683985,31629.0,38.889988,-76.995193,8th & East Capitol St NE,Washington D.C.,558d2adb-7e5a-3930-cd39-e15808606af8
6db076bd-5980-5a17-2cde-ec51972ab68b,31630.0,38.88989567,-76.983463,15th & East Capitol St NE,Washington D.C.,558d2adb-7e5a-3930-cd39-e15808606af8
a36cf2b9-8f6d-0aaa-b2b3-d2229af865df,31631.0,38.8972275,-76.994749,8th & F St NE,Washington D.C.,5154ef5f-bac0-d757-b057-c1627cf7fcf6
e7b128fd-0f90-e49c-f819-b75085ad0c99,31632.0,38.89709583,-76.98358183,15th & F St NE,Washington D.C.,5154ef5f-bac0-d757-b057-c1627cf7fcf6
89c08e1c-69a3-6e9a-8c03-54be5a6d1efc,31633.0,38.887312,-77.025794,Independence Ave & L'Enfant Plaza SW/DOE,Washington D.C.,fb368220-216d-27a2-3501-e088d6a34d3e
8951d454-e14e-939a-b62e-96933309cdb1,31634.0,38.87485067,-77.0024955,3rd & Tingey St SE,Washington D.C.,5fbf2e16-e736-f4fc-b7cf-d8913ce3808e
11f10c60-a992-1b68-eb7f-ec926c931d1a,31635.0,38.87669883,-76.994505,Potomac Ave & 8th St SE,Washington D.C.,558d2adb-7e5a-3930-cd39-e15808606af8
9c546496-be47-cc7a-4460-56bfb6aafae5,31636.0,38.90733256,-77.01539017,New Jersey Ave & N St NW/Dunbar HS,Washington D.C.,400db00d-d388-1a50-5805-6ed0980dc6ff
128137ea-c090-bc84-f8ec-ae24b89b02f9,31637.0,38.899682,-77.00930317,North Capitol St & G Pl NE,Washington D.C.,400db00d-d388-1a50-5805-6ed0980dc6ff
18b8a008-f9f5-9771-2d75-c843406797b6,31638.0,38.90027167,-77.01235983,1st & H St NW,Washington D.C.,400db00d-d388-1a50-5805-6ed0980dc6ff
340e8462-eb2c-79d4-0f07-8f6c26a89353,31639.0,38.89955467,-77.003666,2nd & G St NE,Washington D.C.,400db00d-d388-1a50-5805-6ed0980dc6ff
0b7ef083-da27-7078-6d98-14d5dac504e5,31640.0,38.89622604,-76.99278563,Maryland Ave & E St NE,Washington D.C.,558d2adb-7e5a-3930-cd39-e15808606af8
e9901243-175a-1163-a31a-7b190d8509db,31641.0,38.894972,-77.003135,2nd St & Massachusetts Ave NE,Washington D.C.,558d2adb-7e5a-3930-cd39-e15808606af8
8049e97a-781b-5120-8349-7471d0246cca,31642.0,38.90257109,-77.0136725,New Jersey Ave & K St NW,Washington D.C.,400db00d-d388-1a50-5805-6ed0980dc6ff
500c48e1-fc14-7a78-196a-8d845ec8e9d7,31643.0,38.88485667,-77.00599067,1st & D St SE,Washington D.C.,bd953dc2-3cc2-1779-0825-c7cc67e84707
087ee17b-880e-180b-206a-985a0a452b53,31644.0,38.88240283,-76.9901685,12th St & Pennsylvania Ave SE,Washington D.C.,558d2adb-7e5a-3930-cd39-e15808606af8
e539d34d-20d1-eb7d-aa0c-b6f5717f5eed,31645.0,38.90293157,-76.99842217,6th & K St NE,Washington D.C.,5154ef5f-bac0-d757-b057-c1627cf7fcf6
e61541b6-b528-614c-c36e-5359652b0ed7,31646.0,38.88044,-77.025236,Maine Ave & 9th St SW,Washington D.C.,bd953dc2-3cc2-1779-0825-c7cc67e84707
bc937d7e-064d-7a2f-7232-80c3e1df6f91,31647.0,38.8921655,-76.99602033,7th St & Massachusetts Ave NE,Washington D.C.,558d2adb-7e5a-3930-cd39-e15808606af8
40008e26-1722-ebbe-451e-07ea8646422c,31648.0,38.869683,-77.010822,Potomac Ave & Half St SW,Washington D.C.,bd953dc2-3cc2-1779-0825-c7cc67e84707
4d455c71-15f6-063e-534e-570fcce695f7,31649.0,38.931991,-77.032956,14th & Newton St NW,Washington D.C.,ec717f15-8895-787f-99c4-258bfc985000
0ee3bdcb-625d-4dd2-dc14-f82708c0e4a2,31650.0,38.876893,-77.006189,1st & M St SE,Washington D.C.,bd953dc2-3cc2-1779-0825-c7cc67e84707
bc377f13-502e-5056-42d1-5cd3bb8c1409,31651.0,38.93132186,-77.02826283,11th & Park Rd NW,Washington D.C.,ec717f15-8895-787f-99c4-258bfc985000
6153af71-cb69-15c1-42a3-05d521480046,31652.0,38.876751,-77.000736,4th & M St SE,Washington D.C.,558d2adb-7e5a-3930-cd39-e15808606af8
ad83c3fb-db19-a0bb-1dfc-a10cce9244cb,31653.0,38.90243983,-77.021918,7th & K St NW,Washington D.C.,2547f19c-6bf8-4914-a6a5-bc9974a677c6
d765194f-6cc1-aeaf-1814-37224dc232a6,31654.0,38.876211,-77.012443,King Greenleaf Rec Center,Washington D.C.,bd953dc2-3cc2-1779-0825-c7cc67e84707
3495d62a-8ea3-2f2e-80b3-80113ed1e0eb,31655.0,38.8969335,-77.011888,New Jersey Ave & F St NW,Washington D.C.,2547f19c-6bf8-4914-a6a5-bc9974a677c6
8262cdc5-56b2-a3e4-ec4c-277b5481e736,31656.0,38.90192467,-76.978719,Maryland Ave & 17th St NE,Washington D.C.,5154ef5f-bac0-d757-b057-c1627cf7fcf6
e54e1ad1-f4cf-d336-641e-9e8dc89b69d3,31657.0,38.892934,-76.998273,Massachusetts Ave & 6th St NE,Washington D.C.,558d2adb-7e5a-3930-cd39-e15808606af8
21358ee6-1acc-d407-7b2c-ce17958a3855,31658.0,38.89778767,-76.979672,Rosedale Rec Center,Washington D.C.,5154ef5f-bac0-d757-b057-c1627cf7fcf6
86143e14-72d8-37af-d08e-f562a70f268f,31659.0,38.88580783,-76.9915345,11th & C St SE,Washington D.C.,558d2adb-7e5a-3930-cd39-e15808606af8
d810c3f6-b829-62a8-8f03-6fbefcef9215,31660.0,38.90264167,-76.99520767,8th & K St NE,Washington D.C.,5154ef5f-bac0-d757-b057-c1627cf7fcf6
8523e065-b387-7f0e-94d4-3eded5b48ad0,31661.0,38.899689,-76.99499683,8th & H St NE,Washington D.C.,5154ef5f-bac0-d757-b057-c1627cf7fcf6
fad32caf-e595-e3cb-07bf-aaea891e53cb,31662.0,38.902386,-77.005708,1st & K St NE,Washington D.C.,400db00d-d388-1a50-5805-6ed0980dc6ff
be40f38e-4a94-5554-fdbb-37b8d4e4db03,31663.0,38.88398183,-76.9863852,14th & D St SE,Washington D.C.,558d2adb-7e5a-3930-cd39-e15808606af8
63a522e3-5ecf-615d-3331-824728333e0e,31664.0,38.86626617,-77.01058533,Half & Water St SW,Washington D.C.,bd953dc2-3cc2-1779-0825-c7cc67e84707
68d52eb6-18ed-e6c3-5300-1b63856558b2,31665.0,38.88548253,-76.97718725,Stadium Armory Metro,Washington D.C.,558d2adb-7e5a-3930-cd39-e15808606af8
109ada70-932d-0488-2059-9249586ac6e6,31666.0,38.8810565,-77.01775417,4th & G St SW,Washington D.C.,bd953dc2-3cc2-1779-0825-c7cc67e84707
cc88ebd1-d0a0-79f5-4ced-509a0b27b4c9,31667.0,38.86365417,-77.013814,2nd & V St SW / James Creek Marina,Washington D.C.,bd953dc2-3cc2-1779-0825-c7cc67e84707
6ae70ff2-504b-60b5-889f-5e9aa6af9b40,31668.0,38.871841,-77.00591,1st St & Potomac Ave SE,Washington D.C.,5fbf2e16-e736-f4fc-b7cf-d8913ce3808e
45cda949-5a45-0d23-519c-d4cc4c5ec38d,31669.0,38.87662617,-77.002161,3rd & M St SE,Washington D.C.,558d2adb-7e5a-3930-cd39-e15808606af8
852571d4-bf9e-995c-bfad-326153461eb3,31672.0,38.899871,-76.99276683,10th & H St NE,Washington D.C.,5154ef5f-bac0-d757-b057-c1627cf7fcf6
1f327a74-86b0-59dc-0234-5a9d8045432f,31673.0,38.87482077,-77.020788,Waterfront Park,Washington D.C.,bd953dc2-3cc2-1779-0825-c7cc67e84707
ba0ff0b7-ea17-4c4e-512e-2bea2614e7e7,31674.0,38.87671783,-77.02097133,Maine Ave & Water St SW,Washington D.C.,bd953dc2-3cc2-1779-0825-c7cc67e84707
92b75630-53db-4391-c8e2-896a5358bf46,31675.0,38.90244373,-77.008246,North Capitol & K St NE,Washington D.C.,400db00d-d388-1a50-5805-6ed0980dc6ff
4794ab91-faba-b7b5-73aa-1107119fe69f,31676.0,38.87077383,-77.01202133,1st & Q St SW,Washington D.C.,bd953dc2-3cc2-1779-0825-c7cc67e84707
5d39f1b8-e9b2-d06a-7442-a8cc7acd7a45,31677.0,38.90381033,-77.011987,1st & L St NW,Washington D.C.,400db00d-d388-1a50-5805-6ed0980dc6ff
616a43de-f841-ad26-bddb-f0caed7852ce,31700.0,38.861663,-76.969184,Good Hope & Naylor Rd SE,Washington D.C.,1cd0c151-2581-70f9-e6e0-53f7675ebe3b
1402f91c-ece9-d8ed-e3bb-a436d0cd14a1,31701.0,38.869191,-76.959631,Branch & Pennsylvania Ave SE,Washington D.C.,1cd0c151-2581-70f9-e6e0-53f7675ebe3b
0e5c9beb-cd26-6ea8-9437-35d4ec1b2724,31702.0,38.87803167,-76.96071567,Randle Circle & Minnesota Ave SE,Washington D.C.,8820e3bd-fd06-f9f6-d272-324860831ef2
7dff04ae-8611-f8b9-0c79-50fa2273ea38,31703.0,38.89696217,-76.9475145,Minnesota Ave Metro/DOES,Washington D.C.,8820e3bd-fd06-f9f6-d272-324860831ef2
407dbb94-fe14-5171-da64-b870935ac8d9,31704.0,38.901385,-76.941877,Nannie Helen Burroughs & Minnesota Ave NE,Washington D.C.,8820e3bd-fd06-f9f6-d272-324860831ef2
92e38012-b3f2-513d-3ed0-3c49c8b0da28,31707.0,38.889935,-76.93728583,Benning Rd & East Capitol St NE / Benning Rd Metro,Washington D.C.,8820e3bd-fd06-f9f6-d272-324860831ef2
fd983df5-5c90-5c22-56b1-b132bf246424,31708.0,38.896544,-76.96012,Anacostia Ave & Benning Rd NE / River Terrace ,Washington D.C.,8820e3bd-fd06-f9f6-d272-324860831ef2
5ec127b3-a4bc-7977-cc02-5364f13b7619,31711.0,38.908473,-76.933099,Deanwood Rec Center,Washington D.C.,8820e3bd-fd06-f9f6-d272-324860831ef2
9927a8fd-76ee-29aa-4eb0-ff74670f2134,31712.0,38.894474,-76.974866,Oklahoma Ave & D St NE,Washington D.C.,5154ef5f-bac0-d757-b057-c1627cf7fcf6
81ee476c-8839-9110-5727-d740fad13805,31715.0,38.883011,-76.949709,37th & Ely Pl SE,Washington D.C.,8820e3bd-fd06-f9f6-d272-324860831ef2
400839a9-25fa-97dd-0771-48a52af4c782,31719.0,38.89738067,-76.9695385,Oklahoma Ave & Benning Rd NE,Washington D.C.,5154ef5f-bac0-d757-b057-c1627cf7fcf6
2226ff43-9012-0ea1-389c-1ccfafef1ac1,31720.0,38.878771,-76.97093,Anacostia Roller Skating Pavilion,Washington D.C.,558d2adb-7e5a-3930-cd39-e15808606af8
c42dddc2-2f41-f7cd-1cdd-ee9ce8247487,31800.0,38.8432095,-76.99944817,Alabama & MLK Ave SE,Washington D.C.,efe8b3b5-a080-c6a5-2dec-e95af5b67e6e
9ea4f0bb-ba5b-99cd-f06f-217a693e6d5d,31801.0,38.862669,-76.994637,Anacostia Metro,Washington D.C.,5fbf2e16-e736-f4fc-b7cf-d8913ce3808e
fa85459d-1966-a3bb-cfcd-69020cd3aee8,31802.0,38.86728933,-76.98811267,Good Hope Rd & MLK Ave SE,Washington D.C.,5fbf2e16-e736-f4fc-b7cf-d8913ce3808e
b6f3d08a-4406-d47f-ae6a-c89a8bb3835b,31803.0,38.866611,-76.985238,Good Hope Rd & 14th St SE,Washington D.C.,5fbf2e16-e736-f4fc-b7cf-d8913ce3808e
11180cd9-42fe-9ca9-344f-efe11b604336,31804.0,38.865739,-76.97836133,Anacostia Library,Washington D.C.,1cd0c151-2581-70f9-e6e0-53f7675ebe3b
a41aafac-86c0-abfe-923b-3beaa1d3ff82,31805.0,38.873057,-76.971015,Pennsylvania & Minnesota Ave SE,Washington D.C.,1cd0c151-2581-70f9-e6e0-53f7675ebe3b
cb517e6a-12a3-c54b-daeb-22a514185d06,31806.0,38.844711,-76.987823,Congress Heights Metro,Washington D.C.,1cd0c151-2581-70f9-e6e0-53f7675ebe3b
d69871bc-a4ab-4eec-37a6-437bd9c2b0cf,31807.0,38.863897,-76.990037,Pleasant St & MLK Ave SE,Washington D.C.,5fbf2e16-e736-f4fc-b7cf-d8913ce3808e
6e9d7077-dca1-284f-82f0-1b582c61cbec,31811.0,38.831516,-77.008133,South Capitol & Atlantic St SW,Washington D.C.,efe8b3b5-a080-c6a5-2dec-e95af5b67e6e
e66743dc-5e3c-1d96-9721-c6e50597ebc1,31812.0,38.870695,-76.982359,16th & Q St SE / Anacostia HS,Washington D.C.,5fbf2e16-e736-f4fc-b7cf-d8913ce3808e
ceb52fc3-b5d4-ce45-7c96-9920d8fe4338,31813.0,38.84627,-76.98185,Alabama Ave & Stanton Rd SE / Shops at Park Village,Washington D.C.,1cd0c151-2581-70f9-e6e0-53f7675ebe3b
334c76b8-e42b-0627-384d-a68248a3ff76,31814.0,38.84377,-76.97557,Mississippi Ave & 19th St SE / THEARC,Washington D.C.,1cd0c151-2581-70f9-e6e0-53f7675ebe3b
e61baceb-dd90-f85b-7e5d-933d991ba3ce,31815.0,38.84623,-76.97703,19th & Savannah St SE,Washington D.C.,1cd0c151-2581-70f9-e6e0-53f7675ebe3b
73c2f6f0-6ce9-e732-3c37-7da0e48e1b4d,31817.0,38.82445067,-77.00542867,1st & S Capitol St SE / Oxon Run Trail,Washington D.C.,efe8b3b5-a080-c6a5-2dec-e95af5b67e6e
e9a1a258-8b62-ccba-5dfe-36f1acf424d9,31818.0,38.82373,-77.00223,Livingston Rd & 3rd St SE,Washington D.C.,efe8b3b5-a080-c6a5-2dec-e95af5b67e6e
7b6eb806-cc54-4333-3056-ddb0f1da2b29,31819.0,38.81909,-77.01033,Joliet St & MLK Ave SW/Bald Eagle Rec Ctr,Washington D.C.,efe8b3b5-a080-c6a5-2dec-e95af5b67e6e
d73ecd63-d064-6cf9-129c-03b0b9cf3dde,31820.0,38.8733385,-76.9833995,Anacostia Park,Washington D.C.,5fbf2e16-e736-f4fc-b7cf-d8913ce3808e
68457e41-41ad-fe67-f9ee-f8dbff876918,31822.0,38.855004,-76.984512,Stanton Square SE,Washington D.C.,1cd0c151-2581-70f9-e6e0-53f7675ebe3b
883062fa-bf2d-288b-021e-a0e2338c9127,31823.0,38.835737,-76.983144,United Medical Center,Washington D.C.,efe8b3b5-a080-c6a5-2dec-e95af5b67e6e
e0463f9f-83a8-1a4e-6176-a3cac53482ec,31825.0,38.85736904,-76.97768801,Fort Stanton Rec Center,Washington D.C.,1cd0c151-2581-70f9-e6e0-53f7675ebe3b
9da7fdf2-675b-b4b3-138f-cc237cb10028,31826.0,38.8693365,-76.978519,Minnesota Ave & R St SE,Washington D.C.,5fbf2e16-e736-f4fc-b7cf-d8913ce3808e
940a3aeb-cbd5-da31-8293-d779e1f86d03,31827.0,38.853124,-77.005174,St. Elizabeths West Campus/DHS,Washington D.C.,5fbf2e16-e736-f4fc-b7cf-d8913ce3808e
5a11494f-0a45-3e8c-6cf3-eeea95a8303b,31828.0,38.88029467,-77.00612083,New Jersey Ave & H St SE,Washington D.C.,bd953dc2-3cc2-1779-0825-c7cc67e84707
01a38311-755d-3871-fce5-d2c6d9e46a51,31900.0,38.89825367,-77.11803333,Langston Blvd & N Woodstock St,Washington D.C.,2e1c5d3a-56a6-8b41-de28-123c7fd39898
b22cc347-4ca2-7b41-f5e4-c4bb30942540,31901.0,38.884829,-77.127671,Washington Blvd & N Frederick St,Washington D.C.,83e2c328-45b6-1df2-7dea-ab6416d1b5ac
8a70103f-0168-e969-a45f-419cb0fb4bc8,31902.0,38.876528,-77.12712,Wilson Blvd & N Illinois St ,Washington D.C.,b3de08f9-ec98-3704-4692-ba0357079670
8332ac33-4d7a-b56d-d265-bcd71ebb3ef7,31903.0,38.7993625,-77.04467,Royal St & Wilkes St,Washington D.C.,af9b74f8-4ffc-bf42-1792-1e6c8b8e8f4e
50c80450-bf32-3ef2-fe72-5a5ee31ef8fb,31904.0,38.88532072,-77.15651283,East Falls Church Metro / Sycamore St & 19th St N,Washington D.C.,80b91b2e-de0d-0fc5-8c50-50eac832652e
a521dadd-8b03-ee7c-c6cd-35fff885ce63,31905.0,38.880992,-77.135271,Kennebec St & 11th St N,Washington D.C.,83e2c328-45b6-1df2-7dea-ab6416d1b5ac
48525e8a-8d27-07d7-fe69-2199926c8264,31906.0,38.81257017,-77.0617565,Commonwealth Ave & Oak St,Washington D.C.,af9b74f8-4ffc-bf42-1792-1e6c8b8e8f4e
f08b5652-8ac3-2bbd-6953-e9e8868f8154,31908.0,38.828437,-77.086031,Radford St & Osage St,Washington D.C.,cb8f1137-c938-c68d-1027-e5d35c7fe058
8492c7b5-f40f-f922-ed42-1259d18da490,31909.0,38.843422,-77.064016,Mount Vernon Ave & Four Mile Run Park,Washington D.C.,c7eec61b-bf97-03c0-96fa-bb7b1ba95a54
94c05053-a145-66e6-9a4f-17b66886663a,31910.0,38.822738,-77.049265,Potomac Ave & Main Line Blvd,Washington D.C.,b89c4e56-261c-374b-a076-57d61404ab1e
21858664-4d49-ffce-73d8-7fd74ec9521c,31912.0,38.841291,-77.063093,Mount Vernon Ave & Bruce St,Washington D.C.,c7eec61b-bf97-03c0-96fa-bb7b1ba95a54
23ec7597-9615-a32e-71b5-ff55819e0387,31913.0,38.82005823,-77.06282079,Commonwealth Ave & E Monroe Ave,Washington D.C.,b89c4e56-261c-374b-a076-57d61404ab1e
f97c4298-fa01-208b-c5c3-28968ccc6ff2,31914.0,38.797557,-77.053766,Lee Center,Washington D.C.,af9b74f8-4ffc-bf42-1792-1e6c8b8e8f4e
027586da-a2fc-706b-40b3-d0c629b87baf,31915.0,38.818748,-77.047783,Powhatan St & Bashford Ln,Washington D.C.,b89c4e56-261c-374b-a076-57d61404ab1e
a95b3b44-bc73-5ca7-6c96-edfafe99958f,31916.0,38.829545,-77.047844,Potomac Ave & Swann Ave,Washington D.C.,b89c4e56-261c-374b-a076-57d61404ab1e
6bbe026b-5e4d-0c25-0947-aa9290df617b,31917.0,38.89370017,-77.0709585,N Lynn St & Fairfax Dr,Washington D.C.,4bbdbb01-dc14-ed57-5e07-30b3cc170c31
a8b3b3de-efbf-fa3d-4813-fcaa66f292ed,31918.0,38.812351,-77.040691,Madison St & Fairfax St,Washington D.C.,af9b74f8-4ffc-bf42-1792-1e6c8b8e8f4e
04b15253-ab6f-e7d5-c042-6a0ce5346059,31919.0,38.876695,-77.112982,Carlin Springs Rd & N Thomas St,Washington D.C.,b3de08f9-ec98-3704-4692-ba0357079670
170c4b00-ecd7-8663-1729-7db8e6145787,31920.0,38.888282,-77.111066,Washington-Liberty High School / N Stafford St & Generals Way,Washington D.C.,fa749692-f21f-f5eb-6ed7-8f5d0960afe9
44d50172-6227-9051-013b-c6bad8a9f8f4,31923.0,38.85930562,-77.10222783,Columbia Pike & S George Mason Dr,Washington D.C.,25f02628-eb07-c30d-5cd5-061c9c5f319e
c812fed7-cbc0-981c-459f-039076e099f9,31924.0,38.89255,-77.082089,Wilson Blvd & N Troy St,Washington D.C.,4bbdbb01-dc14-ed57-5e07-30b3cc170c31
da2d6582-bfd6-4e7f-a2c6-31335f64e0d2,31926.0,38.87947661,-77.11456329,Wilson Blvd & N Vermont St,Washington D.C.,b3de08f9-ec98-3704-4692-ba0357079670
6372099a-5627-922c-c4c5-475d7b3e5daa,31928.0,38.84154816,-77.10773438,N. Beauregard St. & Berkley St.,Washington D.C.,834c1b69-573a-c59a-355f-2af41757905e
7bd55800-1dd3-9048-cdb4-255d74c6224f,31929.0,38.79304817,-77.049436,Mt Vernon Trail & S. Washington St.,Washington D.C.,af9b74f8-4ffc-bf42-1792-1e6c8b8e8f4e
25f46356-6a4a-2ead-250a-bf6e5ac04ca4,31930.0,38.802738,-77.082463,Eisenhower Ave & Ike Dr,Washington D.C.,96655f23-b1d1-17b7-5b0f-13b0c65fb8a2
d065c0e7-2c0d-0a30-feb8-9fff04a65e39,31931.0,38.81403111,-77.04281688,N Pitt St & Montgomery St,Washington D.C.,af9b74f8-4ffc-bf42-1792-1e6c8b8e8f4e
208ad9ff-db9e-49be-5e25-e8a0429ea21f,31932.0,38.8000766,-77.1299434,Van Dorn Metro,Washington D.C.,4e424b92-c277-af32-08c9-196da9fd1ce9
f31aeb00-4982-5407-c941-965096ee86ef,31933.0,38.801885,-77.040293,Duke St & Strand (Robinson Terminal),Washington D.C.,af9b74f8-4ffc-bf42-1792-1e6c8b8e8f4e
f065df4a-4207-158a-69b4-8c0eff6b0446,31935.0,38.852903,-77.0460505,National Airport,Washington D.C.,e488b6c8-5ad3-ba32-8332-f05a58296818
6bb685a0-bd51-2b39-498a-fb138387a1e7,31936.0,38.8648085,-77.0569075,Army Navy Dr & Fern St,Washington D.C.,e488b6c8-5ad3-ba32-8332-f05a58296818
55fdc401-6efa-083b-460f-923db0fa6216,31937.0,38.890863,-77.074893,Arlington Blvd & Ft Myer Dr,Washington D.C.,4bbdbb01-dc14-ed57-5e07-30b3cc170c31
3728aab9-7c5d-00be-e9f9-fa5bc6e95218,31938.0,38.853002,-77.059496,23rd St S & Hayes St,Washington D.C.,e488b6c8-5ad3-ba32-8332-f05a58296818
f3085db8-7dca-da54-d462-0a8bb728b7f9,31939.0,38.89489767,-77.07386,Wilson Blvd & N Oak St,Washington D.C.,4bbdbb01-dc14-ed57-5e07-30b3cc170c31
6cd4d5b3-b757-9183-66e3-3812f8b3e021,31940.0,38.88625607,-77.08426237,Arlington Blvd & Fairfax Dr,Washington D.C.,fa749692-f21f-f5eb-6ed7-8f5d0960afe9
34c590e7-2124-f447-107f-37d417647fa2,31941.0,38.837306,-77.106111,N Hampton Dr & Ford Ave,Washington D.C.,834c1b69-573a-c59a-355f-2af41757905e
baec1fcf-3aae-b5ed-264c-679bf76d8381,31942.0,38.809709,-77.13591933,Whiting & Lane Dr,Washington D.C.,ab163406-b458-1e37-8f2f-39495d09dd29
27dccbb0-40d3-458c-1a6f-936506b0da21,31943.0,38.81579583,-77.1101405,N Howard St & Taney Ave,Washington D.C.,4e424b92-c277-af32-08c9-196da9fd1ce9
1954f128-f3c1-51a4-c652-fc977ad35305,31944.0,38.845028,-77.051956,S Clark St & 33rd St,Washington D.C.,c7eec61b-bf97-03c0-96fa-bb7b1ba95a54
2ffbbd51-b937-a988-a650-23ba662d6088,31945.0,38.854019,-77.118106,Columbia Pike & S Greenbrier St,Washington D.C.,b3de08f9-ec98-3704-4692-ba0357079670
6d7cd4ed-16d3-5266-00c4-58b4d598c859,31946.0,38.828887,-77.110588,Kenmore Ave & Seminary Rd,Washington D.C.,43cdc356-7c55-dde1-d5d1-cbd047e5eb8d
0d05f982-feeb-b948-f46e-d6dd9ca4f36e,31947.0,38.89608691,-77.07165817,Rosslyn Metro / Wilson Blvd & N Moore St,Washington D.C.,4bbdbb01-dc14-ed57-5e07-30b3cc170c31
6c0046f4-88d4-161a-37e1-03558cb25244,31948.0,38.88715,-77.16212,W&OD Trail & Langston Blvd,Washington D.C.,80b91b2e-de0d-0fc5-8c50-50eac832652e
a6ce9740-f233-f692-0c0a-78d058c17f6b,31949.0,38.86351733,-77.077241,Columbia Pike & S Scott St/12th St S,Washington D.C.,767d5274-c68d-eb5d-403a-960a8652dbd0
bc098fd8-1a69-56d4-ed10-e6b8f837a7d6,31950.0,38.87056105,-77.04409495,Long Bridge Aquatic Center,Washington D.C.,e488b6c8-5ad3-ba32-8332-f05a58296818
d5bc9f74-6b6c-d23a-add7-63fa8d86850e,31952.0,38.818509,-77.105564,N Howard St & N Imboden St,Washington D.C.,4e424b92-c277-af32-08c9-196da9fd1ce9
fec08e90-1e5f-a037-bdba-19ebabf100b0,31953.0,38.80445167,-77.13240883,S Pickett St & Shillings St,Washington D.C.,4e424b92-c277-af32-08c9-196da9fd1ce9
2dd5ad98-475c-61b1-af3e-f55c43ecf2b9,31954.0,38.811361,-77.109975,S Jordan St & Venable St,Washington D.C.,4e424b92-c277-af32-08c9-196da9fd1ce9
b444090f-cb14-957d-ce1c-61527ace7783,31955.0,38.8059905,-77.05598567,King St & Peyton St,Washington D.C.,af9b74f8-4ffc-bf42-1792-1e6c8b8e8f4e
36d71c3f-c953-0f5e-0c34-6fdfdb9be515,31956.0,38.83728,-77.060899,Reed & Edison,Washington D.C.,c7eec61b-bf97-03c0-96fa-bb7b1ba95a54
ddcc33fe-1652-43bd-a4ee-ff8dad433669,31958.0,38.800703,-77.048043,S Washington St & Wilkes St,Washington D.C.,af9b74f8-4ffc-bf42-1792-1e6c8b8e8f4e
7281c9e4-ab30-0794-1fb0-975f63c47f8a,31959.0,38.832431,-77.049772,Main Line Blvd & E Glebe,Washington D.C.,c7eec61b-bf97-03c0-96fa-bb7b1ba95a54
7f7a6583-8200-62ec-ae94-e3864b53d283,31960.0,38.83683765,-77.05727398,Commonwealth and Reed,Washington D.C.,c7eec61b-bf97-03c0-96fa-bb7b1ba95a54
9b2a1bb0-1dbc-77ac-64a1-1177e7b33734,31962.0,38.827674,-77.0890455,King St & W Braddock Rd,Washington D.C.,cb8f1137-c938-c68d-1027-e5d35c7fe058
262d9d55-1b17-a754-7aac-3fa2da97a917,31963.0,38.81424983,-77.118935,Holmes Run Pkwy & N Pickett St,Washington D.C.,4e424b92-c277-af32-08c9-196da9fd1ce9
b3cfb710-e7c7-999c-9d17-3f5b62e8c79c,31964.0,38.82012567,-77.09401033,Virginia Theological Seminary,Washington D.C.,cb8f1137-c938-c68d-1027-e5d35c7fe058
41f2b2f3-854f-639d-2ac8-99d73381d8ef,31966.0,38.812187,-77.10994,Duke St & Jordan St,Washington D.C.,4e424b92-c277-af32-08c9-196da9fd1ce9
ef65f0f8-e350-835f-be40-d9f36aa68fdb,31967.0,38.809607,-77.128908,S Reynolds St & Edsall Rd,Washington D.C.,4e424b92-c277-af32-08c9-196da9fd1ce9
de724287-49e1-33b0-8966-31d2fdf7f3a1,31968.0,38.804801,-77.044676,King St & N Pitt St,Washington D.C.,af9b74f8-4ffc-bf42-1792-1e6c8b8e8f4e
cf696e8f-e51f-0eba-a237-b1967e12f154,31969.0,38.81345183,-77.05374,Braddock Rd Metro South,Washington D.C.,af9b74f8-4ffc-bf42-1792-1e6c8b8e8f4e
c9e901e1-36f1-a8ec-e9bd-00a88b77bab0,31970.0,38.81694767,-77.050105,First St & Fayette St,Washington D.C.,b89c4e56-261c-374b-a076-57d61404ab1e
dc6da46e-564b-7be9-9fa1-6a0cc2793ab2,31971.0,38.863508,-77.084259,Penrose Sq/Columbia Pike & S Barton St,Washington D.C.,767d5274-c68d-eb5d-403a-960a8652dbd0
c1fd9e00-0231-1cea-1a54-fec67c68d11c,31972.0,38.84404,-77.098093,S Wakefield St & 28th St S,Washington D.C.,834c1b69-573a-c59a-355f-2af41757905e
58cd091b-a843-a823-bab2-4193fd2cf1a3,31973.0,38.87424283,-77.10489583,N Pershing Dr & N Quebec St,Washington D.C.,25f02628-eb07-c30d-5cd5-061c9c5f319e
b573f61a-f7fb-c221-e299-d75eed02121d,31974.0,38.80289017,-77.0727345,Mandeville Ln & Stovall St,Washington D.C.,af9b74f8-4ffc-bf42-1792-1e6c8b8e8f4e
a01d9d30-8a60-90cf-0e72-c596447d1660,31976.0,38.88791377,-77.12807817,Virginia Hospital Center,Washington D.C.,83e2c328-45b6-1df2-7dea-ab6416d1b5ac
e7792a6f-c285-df1a-4cc3-e66870b44e18,31977.0,38.904252,-77.127776,Marymount University / Yorktown Blvd & 26th St N,Washington D.C.,2e1c5d3a-56a6-8b41-de28-123c7fd39898
820d311a-3a82-eb36-19cb-517bd7a6965b,32000.0,38.988562,-77.096539,Norfolk Ave & Fairmont St,Washington D.C.,b74acffb-b0dd-b48b-fb1f-f91ac50e2b99
3f10c021-b4cd-8e8e-4534-d94e4649dea5,32001.0,38.98540167,-77.023082,Fenton St & New York Ave ,Washington D.C.,2b56955d-da2d-3b3d-9ed2-aa0cffd21f09
419def82-2154-e354-25f9-672969617062,32002.0,38.981103,-77.097426,Bethesda Ave & Arlington Rd,Washington D.C.,570f0cbe-f20f-678d-f4f6-717c4b39e336
a14962f5-8f93-d205-6860-32b831ffdffe,32003.0,38.983838,-77.09221,Montgomery Ave & Waverly St ,Washington D.C.,570f0cbe-f20f-678d-f4f6-717c4b39e336
0ef54306-f5c7-4033-e74b-7fb69936ee94,32004.0,39.0962865,-77.19275,Fallsgrove Blvd & Fallsgrove Dr,Washington D.C.,da1101aa-94a6-300c-2dbb-f762a6523995
8265c978-9be6-29db-d59e-3e5388644451,32005.0,39.093783,-77.202501,Traville Gateway Dr & Gudelsky Dr,Washington D.C.,da1101aa-94a6-300c-2dbb-f762a6523995
452959cf-69ee-ec3b-f224-2639261b5841,32006.0,38.9869675,-77.02942267,13th St & Eastern Ave,Washington D.C.,2b56955d-da2d-3b3d-9ed2-aa0cffd21f09
4e48b720-b207-3b39-7aea-e92e47a066e3,32007.0,39.084125,-77.151291,E Montgomery Ave & Maryland Ave,Washington D.C.,da1101aa-94a6-300c-2dbb-f762a6523995
7fae9d40-36e2-f04e-7dc7-922e445ddd25,32008.0,38.98954,-77.098029,Cordell & Norfolk Ave,Washington D.C.,b74acffb-b0dd-b48b-fb1f-f91ac50e2b99
3ddd9859-7875-e73f-9958-80fb5e209080,32011.0,38.98357267,-77.00641683,Maple & Ritchie Ave,Washington D.C.,c6125190-8c07-985b-796b-fa0002f6f33d
c2485eaa-9b11-4332-2d18-be2f56a10d9b,32012.0,38.99524633,-77.02913817,Silver Spring Metro / Colesville Rd & Wayne Ave,Washington D.C.,46103a2b-abf0-ca69-536e-816b402d5ebb
949eba96-e141-cd02-bd3c-aa1f2e635d0d,32013.0,38.983525,-77.095367,Montgomery & East Ln,Washington D.C.,570f0cbe-f20f-678d-f4f6-717c4b39e336
264103c5-88e6-3e06-737c-2ee5b1b536f9,32014.0,38.961763,-77.085998,Friendship Hts Metro / Wisconsin Ave & Wisconsin Cir,Washington D.C.,570f0cbe-f20f-678d-f4f6-717c4b39e336
874a9033-5375-2bd2-8102-a2410ee3b911,32016.0,39.099376,-77.188014,Fallsgrove Dr & W Montgomery Ave,Washington D.C.,da1101aa-94a6-300c-2dbb-f762a6523995
c2eba580-a522-eeb3-2293-c61eb0aae07c,32019.0,38.990249,-77.0295955,East West Hwy & Blair Mill Rd,Washington D.C.,2b56955d-da2d-3b3d-9ed2-aa0cffd21f09
36930452-e439-e76d-fd26-770acfdc3a81,32021.0,38.982456,-77.091991,47th & Elm St,Washington D.C.,570f0cbe-f20f-678d-f4f6-717c4b39e336
7afbf358-7e65-2242-9f5f-48b450bbd9b0,32022.0,39.0253872,-77.044563,Dennis Ave & Amherst Ave,Washington D.C.,8016e14d-d111-eb37-49f0-88d476832b62
e3231fe9-20bf-8361-1e4f-ed4c547d9b70,32023.0,39.095661,-77.159048,Montgomery College / W Campus Dr & Mannakee St,Washington D.C.,da1101aa-94a6-300c-2dbb-f762a6523995
399b6c99-41a7-fb5f-b2c6-fbd023deb6a8,32024.0,38.989724,-77.023854,Fenton St & Gist Ave,Washington D.C.,2b56955d-da2d-3b3d-9ed2-aa0cffd21f09
d43b1dd5-89f0-7848-a2a0-929b16890d91,32025.0,38.97499467,-77.01126033,Carroll & Westmoreland Ave,Washington D.C.,c6125190-8c07-985b-796b-fa0002f6f33d
2c0dacc3-9025-8697-0cce-d50db3f2b9a2,32026.0,38.977933,-77.006472,Carroll & Ethan Allen Ave,Washington D.C.,c6125190-8c07-985b-796b-fa0002f6f33d
9031d495-39eb-63b0-1dbb-2fb1af4cdfb5,32027.0,38.992375,-77.1001435,Battery Ln & Trolley Trail,Washington D.C.,b74acffb-b0dd-b48b-fb1f-f91ac50e2b99
a8ef8120-914c-95d1-80c5-b52f330c29c0,32028.0,38.990639,-77.100239,Norfolk & Rugby Ave,Washington D.C.,b74acffb-b0dd-b48b-fb1f-f91ac50e2b99
53e0472c-6c19-8787-4ed0-1edfe2608a62,32029.0,38.977093,-77.09460717,Offutt Ln & Chevy Chase Dr,Washington D.C.,570f0cbe-f20f-678d-f4f6-717c4b39e336
d25c8062-0522-1a0f-c617-0c370115a71d,32032.0,39.076331,-77.141378,Fleet St & Ritchie Pkwy,Washington D.C.,da1101aa-94a6-300c-2dbb-f762a6523995
38636231-9d89-2a6d-d27c-3a5b4e287100,32033.0,39.102212,-77.177091,Piccard & W Gude Dr,Washington D.C.,da1101aa-94a6-300c-2dbb-f762a6523995
47b963b4-3979-8287-be38-915f15a61486,32034.0,38.99403485,-77.03037143,Silver Spring Transit Center - Top Level,Washington D.C.,46103a2b-abf0-ca69-536e-816b402d5ebb
dc791848-fc28-6e97-a02a-c240ae41bc78,32035.0,38.999388,-77.031555,Georgia Ave & Spring St,Washington D.C.,46103a2b-abf0-ca69-536e-816b402d5ebb
b80100ca-99e4-3e94-44e2-0d0d57508c39,32036.0,38.99689083,-77.025608,Fenton St & Ellsworth Dr ,Washington D.C.,46103a2b-abf0-ca69-536e-816b402d5ebb
1f24df03-05eb-8165-6118-446184b7d15b,32037.0,39.11465267,-77.17162783,King Farm Blvd & Pleasant Dr,Washington D.C.,5b48368e-cc31-36d8-ac73-8c8ca5be6d6b
1d07d20c-23b2-6ad1-58d6-83c054700723,32038.0,39.110314,-77.18273767,King Farm Blvd & Piccard Dr,Washington D.C.,58780d0a-a4e1-5158-461c-b6e0590ef594
24adef7d-c51d-7956-e60b-483d4035d97c,32039.0,38.999634,-77.109647,Old Georgetown Rd & Southwick St,Washington D.C.,b74acffb-b0dd-b48b-fb1f-f91ac50e2b99
58d51a05-0a80-7a90-92f2-33a4ae634acc,32040.0,38.96115,-77.088659,Friendship Blvd & Willard Ave,Washington D.C.,570f0cbe-f20f-678d-f4f6-717c4b39e336
ffaff116-b994-f614-1781-85b813cedb3b,32043.0,38.997445,-77.023894,Veterans Pl & Pershing Dr ,Washington D.C.,46103a2b-abf0-ca69-536e-816b402d5ebb
3fbb550a-5128-38d7-4ccb-e4bf1a6bf371,32044.0,39.085394,-77.145803,Rockville Metro East,Washington D.C.,da1101aa-94a6-300c-2dbb-f762a6523995
5c9c1898-0cbd-7f93-8795-a22044f34f87,32045.0,39.119765,-77.166093,Shady Grove Metro West,Washington D.C.,5b48368e-cc31-36d8-ac73-8c8ca5be6d6b
ecfeba26-2397-c884-140c-a1a807fac177,32046.0,38.964992,-77.103381,River Rd & Landy Ln,Washington D.C.,68916d08-d404-2c36-f000-feb0bce240c6
b85544ca-ef07-56b9-5f3f-23f3663a4f3a,32047.0,39.0844775,-77.14695083,Rockville Metro West,Washington D.C.,da1101aa-94a6-300c-2dbb-f762a6523995
18074ae5-3df7-b5a2-b0f9-2f03a36cbfa7,32048.0,38.98467217,-77.094537,Bethesda Metro / Wisconsin Ave & Old Georgetown Rd,Washington D.C.,570f0cbe-f20f-678d-f4f6-717c4b39e336
0209da6c-460c-d339-542d-a6d0adfd295b,32049.0,38.986743,-77.000035,WAU / Flower Ave & Division St,Washington D.C.,c6125190-8c07-985b-796b-fa0002f6f33d
f57dd6ab-5263-4c8a-e360-8ec683e6a37a,32050.0,38.9976275,-77.034499,Spring St & 2nd Ave,Washington D.C.,46103a2b-abf0-ca69-536e-816b402d5ebb
ec5f80dd-5a34-6e04-1cb9-eea1f2dc18c6,32051.0,38.994113,-77.076986,Connecticut Ave & Chevy Chase Lake Dr,Washington D.C.,570f0cbe-f20f-678d-f4f6-717c4b39e336
b962ba01-a425-38db-ca7e-0f4bcdb64aa5,32053.0,38.999378,-77.097882,Medical Center Metro ,Washington D.C.,b74acffb-b0dd-b48b-fb1f-f91ac50e2b99
ed5f40d0-9b2d-537d-203a-fa3ad7e42f6a,32055.0,38.97985017,-77.093522,Woodmont Ave & Strathmore St,Washington D.C.,570f0cbe-f20f-678d-f4f6-717c4b39e336
17508f8c-67b8-c2f8-4565-7cb4ded18ce5,32056.0,38.995681,-77.038721,East West Hwy & 16th St,Washington D.C.,46103a2b-abf0-ca69-536e-816b402d5ebb
b9b22163-9ee2-13b9-939e-f122add31ecc,32057.0,39.014716,-77.107143,Pooks Hill Rd & Linden Ave,Washington D.C.,b74acffb-b0dd-b48b-fb1f-f91ac50e2b99
6b314e0b-907f-2360-79bf-fa4687198e7a,32058.0,38.990874,-77.016311,Sligo Ave & Carroll Ln,Washington D.C.,2b56955d-da2d-3b3d-9ed2-aa0cffd21f09
4d149354-64ce-2877-ef13-e6958927b27d,32059.0,38.98262933,-76.988351,Takoma Park Rec Center,Washington D.C.,c6125190-8c07-985b-796b-fa0002f6f33d
4d7be03f-a1fa-8df8-382a-1bd2e5f84260,32061.0,38.98809667,-76.98843617,New Hampshire & Kirklynn Ave,Washington D.C.,c6125190-8c07-985b-796b-fa0002f6f33d
999f975c-0dce-f328-2214-68e58c93547a,32062.0,39.03842383,-77.05102041,Wheaton Metro / Georgia Ave & Reedie Dr,Washington D.C.,2c273105-d7c6-f4e2-ec1e-07d7599c8f1c
3d96bfb1-2cd6-6a72-1c20-5729822ee60d,32064.0,39.035965,-77.048395,Amherst Ave & Prichard Rd,Washington D.C.,2c273105-d7c6-f4e2-ec1e-07d7599c8f1c
46453b16-6f42-bff6-e5b0-fcb2370bc2ff,32065.0,39.043272,-77.053085,Grandview & Blueridge Ave,Washington D.C.,2c273105-d7c6-f4e2-ec1e-07d7599c8f1c
89f0f4a1-401b-0277-051d-cf528bc3d38a,32067.0,39.121327,-77.164969,Shady Grove Metro East,Washington D.C.,5b48368e-cc31-36d8-ac73-8c8ca5be6d6b
4301b666-87b7-abb6-f1e0-9e06455bf496,32073.0,39.04313,-77.05006,Blueridge Ave & Elkin St,Washington D.C.,2c273105-d7c6-f4e2-ec1e-07d7599c8f1c
b578afa0-673d-d93b-2046-56047925de5f,32074.0,39.062041,-77.120776,Twinbrook Metro,Washington D.C.,73250c60-b036-d9dd-ddf1-d79fdeb280e6
11aee297-5f9c-3b5b-beb2-cca91a8f973e,32075.0,39.04753,-77.11287,North Bethesda Metro,Washington D.C.,73250c60-b036-d9dd-ddf1-d79fdeb280e6
5cf6e757-8b50-9f22-fa3b-a057a78826d6,32077.0,39.049765,-77.11368,Rockville Pike & Old Georgetown Rd,Washington D.C.,73250c60-b036-d9dd-ddf1-d79fdeb280e6
cdf12419-d804-76a6-8e34-65e28b74e9f8,32081.0,39.06216867,-77.12926883,Congressional Ln & E Jefferson St,Washington D.C.,73250c60-b036-d9dd-ddf1-d79fdeb280e6
94b0cd98-af41-3d9d-81e2-021bb92136b9,32082.0,39.00048,-77.00077,Garland Ave & Walden Rd,Washington D.C.,559741e7-f4de-438f-5d41-1b0df9e324de
720b6f48-4ee1-7958-9e79-c6e507c93091,32084.0,39.04721883,-77.05110017,Wheaton Library & Community Rec Center,Washington D.C.,2c273105-d7c6-f4e2-ec1e-07d7599c8f1c
130865e4-27e0-b98a-21d8-9737aeb292fb,32085.0,39.0313141,-77.0041217,The Shoppes @ Burnt Mills,Washington D.C.,faeeb40c-8782-d4d5-2450-d1c384a4c93f
ad36ddee-2455-4c27-944b-e91ae9d95e94,32086.0,39.081638,-76.945495,Briggs Chaney & Castle Dr,Washington D.C.,5caded41-d62c-bf25-32da-ef9f2a8a49f0
7bec1bce-375d-5cf7-d3ac-07e5e10e1a45,32088.0,39.0778751,-76.9418666,Briggs Chaney Park & Ride,Washington D.C.,5caded41-d62c-bf25-32da-ef9f2a8a49f0
c4731c46-d925-9496-cd0d-fb4bd7726d00,32089.0,39.0391022,-76.9918237,New Hampshire & Lockwood,Washington D.C.,faeeb40c-8782-d4d5-2450-d1c384a4c93f
4ad70091-e37a-ca27-5d76-9cea55e103e8,32092.0,39.085314,-76.940547,Castle Blvd & Castle Ln,Washington D.C.,4869650e-7a2c-54a0-da96-3a45eff83f04
cb8cb4bf-d95f-3da0-27d5-b39228e68ad3,32094.0,39.0379809,-76.9945391,Oak Leaf & Lockwood,Washington D.C.,faeeb40c-8782-d4d5-2450-d1c384a4c93f
67d80702-7091-5526-d548-052b61b95afe,32200.0,38.92921267,-77.240899,Spring Hill Metro,Washington D.C.,abbd5e94-b83d-5f7b-142e-a4cdb101446a
252820d6-99db-7b23-fa09-55731e2c0ef7,32203.0,38.919475,-77.221179,Tysons One Pl & Chain Bridge Rd,Washington D.C.,9de552dd-2bfc-d686-6aa8-7c09baf87131
afdc47c4-aab8-9a16-4b98-48d9450eb7aa,32204.0,38.920913,-77.22211683,Tysons Corner Station,Washington D.C.,9de552dd-2bfc-d686-6aa8-7c09baf87131
f3ff1b4d-9a8b-0920-a38d-1eadcca4b02b,32205.0,38.924437,-77.217664,Westpark & Jones Branch Dr,Washington D.C.,84366826-94b2-4700-efac-6de6c7c66f53
027b97bf-f3cc-3e09-898b-22520218664e,32208.0,38.932636,-77.231825,Tysons West Transit Center,Washington D.C.,abbd5e94-b83d-5f7b-142e-a4cdb101446a
21f09771-a497-68d9-d0b2-b05ceb70399f,32209.0,38.970046,-77.338686,North Shore & Cameron Crescent Dr/Crescent Apartments,Washington D.C.,4d7b8661-6bb9-06c9-efb9-f2c6aa61e488
f13a0899-8fd9-949c-bf3a-a50a612753f1,32210.0,38.962524,-77.361902,Town Center Pkwy & Bowman Towne Dr,Washington D.C.,ddfc1c08-c653-0cc3-8d9f-07119fad3bf4
07c61448-75a3-ae18-19e4-8393e1fff8d3,32214.0,38.957037,-77.359718,Reston Town Center Transit Station,Washington D.C.,ddfc1c08-c653-0cc3-8d9f-07119fad3bf4
ade3485d-993b-27e2-6e94-87c1c77ad8c8,32215.0,38.94660792,-77.33939141,Wiehle-Reston Metro South,Washington D.C.,fefaf558-b86d-152d-454c-fe2ba309b1a6
5ec1c3d1-eefb-98a9-46ac-0cee6c1a7ddc,32216.0,38.959633,-77.358741,Library St & Freedom Dr,Washington D.C.,ddfc1c08-c653-0cc3-8d9f-07119fad3bf4
7644d38c-9b14-5735-67f8-6286688eed8f,32217.0,38.95534,-77.357611,Sunset Hills Rd & Discovery Square,Washington D.C.,fefaf558-b86d-152d-454c-fe2ba309b1a6
c775b3dd-7883-fb1e-1964-4c160da3625d,32219.0,38.955314,-77.368416,Reston YMCA,Washington D.C.,ddfc1c08-c653-0cc3-8d9f-07119fad3bf4
b2867e2f-b442-0d35-a565-b2450993fab3,32220.0,38.951443,-77.340377,Sunset Hills Rd & Isaac Newton Square,Washington D.C.,fefaf558-b86d-152d-454c-fe2ba309b1a6
d4ee8f76-0ac4-cf15-cfeb-88270026ae8b,32221.0,38.923083,-77.227417,Greensboro & International Dr,Washington D.C.,abbd5e94-b83d-5f7b-142e-a4cdb101446a
87cb2d11-23bb-2e3a-965f-47121c72ba61,32222.0,38.915246,-77.220157,Towers Crescent Dr & Tysons One Pl,Washington D.C.,9de552dd-2bfc-d686-6aa8-7c09baf87131
8d103fa1-5b35-b769-c361-442e82116c71,32223.0,38.970412,-77.340787,North Shore Dr & Village Rd,Washington D.C.,4d7b8661-6bb9-06c9-efb9-f2c6aa61e488
9177206d-fbce-c1bd-c86d-dbce4559eb49,32227.0,38.92245,-77.23034,Greensboro & Pinnacle Dr,Washington D.C.,abbd5e94-b83d-5f7b-142e-a4cdb101446a
5b3e361b-a7a5-0ee5-f7f6-701de8b437fe,32229.0,38.92755,-77.226644,Park Run & Onyx Dr,Washington D.C.,abbd5e94-b83d-5f7b-142e-a4cdb101446a
b28d8aac-d1d8-6841-7952-6c86cd55924f,32230.0,38.92398067,-77.20816667,McLean Metro,Washington D.C.,84366826-94b2-4700-efac-6de6c7c66f53
9f2dc62d-ceeb-d5c2-ed72-f0113ec3afbe,32231.0,38.882679,-77.22830833,Dunn Loring Metro,Washington D.C.,9621787d-28f7-4587-3212-c44f07123c8d
f3b43519-8ff6-9970-1b04-b28c3d644b75,32233.0,38.928502,-77.215624,Jones Branch Drive & Scotts Crossing Rd,Washington D.C.,84366826-94b2-4700-efac-6de6c7c66f53
1dcc99fc-289d-e3ae-df3b-2f485b935771,32234.0,38.879355,-77.230681,Merrilee Dr & Lauren Elizabeth Lane,Washington D.C.,f3bd423e-67c6-b462-59bb-b436002b4b4c
b43ce7fa-ea95-5e0e-0a63-5aa2c6dfeea6,32235.0,38.87008483,-77.230168,Merrifield Cinema & Merrifield Town Center,Washington D.C.,f3bd423e-67c6-b462-59bb-b436002b4b4c
ba2ed757-e138-1e12-6c22-0d3f504e8c60,32236.0,38.949008,-77.355299,Vy Reston Heights,Washington D.C.,fefaf558-b86d-152d-454c-fe2ba309b1a6
a032b015-a855-8c5d-40e4-c61258a43d4e,32237.0,38.966344,-77.359341,Baron Cameron Ave & North Hampton Ave,Washington D.C.,ddfc1c08-c653-0cc3-8d9f-07119fad3bf4
ea63aa58-c5a6-6d6b-e5fb-1997feec111e,32238.0,38.936061,-77.337775,Ridge Heights Rd & Seahawks Dr,Washington D.C.,2e45282a-a66e-1277-9fc3-2bb570e9dc05
6a3932eb-6f53-d0b3-9df0-96d00e4034d0,32239.0,38.966848,-77.329282,Becontree Ln & Goldenrain Ct,Washington D.C.,4d7b8661-6bb9-06c9-efb9-f2c6aa61e488
c1000bea-4b3f-1d20-5bd6-a94d60556919,32240.0,38.970807,-77.326761,Ring Rd & North Shore Dr,Washington D.C.,4d7b8661-6bb9-06c9-efb9-f2c6aa61e488
cc564cc8-70e6-b31e-575b-3db1d0ee4266,32241.0,38.973625,-77.351837,Reston Pkwy & Bennington Woods Rd,Washington D.C.,4d7b8661-6bb9-06c9-efb9-f2c6aa61e488
9c11bed6-a28a-d8cc-3cf1-7ebdb3016992,32243.0,38.953691,-77.359717,Reston Town Center Metro North,Washington D.C.,fefaf558-b86d-152d-454c-fe2ba309b1a6
576c5be3-0e58-0ffe-24f5-a90184dce864,32245.0,38.959025,-77.339295,Links Dr & Wedge Dr,Washington D.C.,fefaf558-b86d-152d-454c-fe2ba309b1a6
8356d01d-e431-ae89-1d0e-6fdeac4c09d3,32246.0,38.944013,-77.353552,Golf Course Sq and Golf Course Dr,Washington D.C.,fefaf558-b86d-152d-454c-fe2ba309b1a6
a03b4b0b-a48a-e5e0-8b04-45512c154307,32248.0,38.938797,-77.354067,Olde Crafts Dr and Cartwright Pl,Washington D.C.,2e45282a-a66e-1277-9fc3-2bb570e9dc05
c1e9e3be-574a-c3fa-e4f8-82777cc8d334,32249.0,38.93714619,-77.36786842,Green Range Dr and Glade Dr,Washington D.C.,2e45282a-a66e-1277-9fc3-2bb570e9dc05
953122a4-f9a6-a3ac-1f19-7477b5de8693,32250.0,38.941496,-77.366499,South Gate Community Center,Washington D.C.,2e45282a-a66e-1277-9fc3-2bb570e9dc05
358f0efb-e5b5-d483-7af2-0e3f058bd113,32252.0,38.933923,-77.331653,Ridge Heights and Owl Cove Ln,Washington D.C.,2e45282a-a66e-1277-9fc3-2bb570e9dc05
f3fdfbe3-d577-15f1-a1b0-b3a8621bed79,32253.0,38.93051,-77.345874,Soapstone Dr Convenience Center,Washington D.C.,2e45282a-a66e-1277-9fc3-2bb570e9dc05
3a5163f4-b772-8bf8-65b1-d2302cb9e2bb,32255.0,38.878601,-77.222808,Hartland Rd & Harte Pl,Washington D.C.,9621787d-28f7-4587-3212-c44f07123c8d
f9916395-55ea-8c2b-3f94-1ef51985b59f,32400.0,38.908391,-76.843263,1301 McCormick Dr / Wayne K. Curry Admin Bldg,Washington D.C.,2e376b8b-af9a-e4aa-c24d-a3363812e299
3ec39c4f-a817-f426-543c-859bf84bef6b,32401.0,38.899811,-76.844604,Largo Town Center Metro,Washington D.C.,2e376b8b-af9a-e4aa-c24d-a3363812e299
be3455c8-7618-1cc4-ad42-9a2bc8d68c82,32402.0,38.969581,-76.937388,Baltimore Ave & Van Buren St / Riverdale Park Station,Washington D.C.,fc893150-0ab7-72dc-b7ed-25daa1806108
a6c40444-7e1c-ae65-5e9a-d1e6789e6608,32403.0,38.95548,-76.940133,Baltimore Ave & Jefferson St,Washington D.C.,2a6e4bd6-39eb-08e4-fad1-8c6a78b9d3d6
efd01861-b926-e626-a9c6-057cc5ed8155,32404.0,38.9361555,-76.960082,Perry & 35th St,Washington D.C.,1c5f4755-222e-d171-e44d-a6a60ddc50fb
661b8e26-70cb-730c-6e96-f9b8319ac940,32405.0,38.88994,-76.825535,Largo Rd & Campus Way / Prince Georges's Comm Col,Washington D.C.,7b8fba72-2e79-e0d7-f7cd-9231513de781
7cffc46c-9249-25d4-1ed3-34d08ac21475,32406.0,38.782633,-77.016059,Fleet St & Waterfront St,Washington D.C.,6a5d89bd-0920-da71-8c5e-bf8731800c21
200e1425-d6f9-abcd-4436-81bced40dc4d,32407.0,38.79872583,-77.00103,Oxon Hill Park & Ride,Washington D.C.,6a5d89bd-0920-da71-8c5e-bf8731800c21
6a245782-6049-7284-030e-a6ed265e9ded,32408.0,38.959361,-76.946361,Oglethorpe St & 42nd Ave,Washington D.C.,2a6e4bd6-39eb-08e4-fad1-8c6a78b9d3d6
a703caef-06b6-9ab4-cc8b-dd031be59f38,32410.0,38.95459833,-76.95953433,Queens Chapel & Hamilton St,Washington D.C.,2a6e4bd6-39eb-08e4-fad1-8c6a78b9d3d6
7573bb6c-2ed6-d44c-f0fc-4b47131810bf,32411.0,38.975505,-76.952199,Northwestern High School,Washington D.C.,a99b2c28-615b-43f3-59e1-adc4771fe0ac
8085b157-aacf-05f8-6084-377cc41da245,32412.0,38.97416067,-76.9952515,New Hampshire Ave & East-West Hwy,Washington D.C.,c6125190-8c07-985b-796b-fa0002f6f33d
eaff520b-49db-5c12-d0a0-1524cc4145bf,32414.0,38.9725255,-76.98057933,Riggs Rd & East West Hwy,Washington D.C.,a99b2c28-615b-43f3-59e1-adc4771fe0ac
864c68f6-f8db-903a-277f-761727cf91fb,32415.0,38.79690017,-77.002705,Tanger Outlets,Washington D.C.,6a5d89bd-0920-da71-8c5e-bf8731800c21
412cb34e-f260-4f52-1b11-74fad3765e6d,32416.0,38.961737,-76.995922,Chillum Rd & Riggs Rd / Riggs Plaza,Washington D.C.,c6125190-8c07-985b-796b-fa0002f6f33d
cf95442d-6584-22b2-76e4-f7ef04cf3ac5,32417.0,38.9694855,-76.949059,Hyattsville Library / Adelphi Rd & Toledo Rd,Washington D.C.,a99b2c28-615b-43f3-59e1-adc4771fe0ac
cafdfd7e-bc6f-6237-b466-120da240998e,32418.0,38.95527117,-76.968084,West Hyattsville Metro,Washington D.C.,a99b2c28-615b-43f3-59e1-adc4771fe0ac
b20ccdb0-89a8-ca7e-3a76-3bf0e9a3788d,32419.0,38.888524,-76.913188,Capitol Heights Metro,Washington D.C.,8820e3bd-fd06-f9f6-d272-324860831ef2
8b4bae04-015c-ea36-fddc-cada640af86c,32420.0,38.9656515,-76.95485683,Prince George's Plaza Metro,Washington D.C.,a99b2c28-615b-43f3-59e1-adc4771fe0ac
6c47c6d9-fb6e-b3a5-3fdd-8d5ecdc9fb5e,32421.0,38.962119,-76.93558083,Riverdale Park Town Center,Washington D.C.,fc893150-0ab7-72dc-b7ed-25daa1806108
2dd66631-a98a-6ddc-28ad-fdb0e8414d8d,32422.0,38.968842,-76.954171,The Mall at Prince Georges,Washington D.C.,a99b2c28-615b-43f3-59e1-adc4771fe0ac
13787e13-3d38-f38e-a993-43b657ac78d0,32424.0,39.00031,-76.87801533,Roosevelt Center & Crescent Rd,Washington D.C.,345158db-9715-03bd-126d-15699c9e8752
8ecfafe3-ef78-4c8f-894e-cb0dc667b0a8,32600.0,38.8901554,-77.183178,Founders Row/W Broad St & West St,Washington D.C.,80b91b2e-de0d-0fc5-8c50-50eac832652e
602cc709-2cf4-9ae2-2933-eb1cf5d7ee4d,32601.0,38.87380772,-77.15284914,Eden Center,Washington D.C.,83e2c328-45b6-1df2-7dea-ab6416d1b5ac
37845506-835b-b805-0585-d23f95d9ad91,32602.0,38.88837,-77.179832,N Oak St & W Broad St,Washington D.C.,80b91b2e-de0d-0fc5-8c50-50eac832652e
0a5b4c90-cb5d-d810-3c54-67166d6bbc9c,32603.0,38.887403,-77.176992,Pennsylvania Ave & Park Ave,Washington D.C.,80b91b2e-de0d-0fc5-8c50-50eac832652e
30b3858e-b981-0331-8402-6d89ef8f6f23,32604.0,38.880612,-77.171891,E Fairfax St & S Washington St,Washington D.C.,80b91b2e-de0d-0fc5-8c50-50eac832652e
9ca354d6-b0cc-1cec-8108-1239b3473ea3,32605.0,38.883601,-77.173438,W Broad St & Little Falls St,Washington D.C.,80b91b2e-de0d-0fc5-8c50-50eac832652e
13c4be39-8968-b582-ff8a-a933a74f7dff,32607.0,38.87972,-77.1784345,S Maple Ave & S Washington St,Washington D.C.,80b91b2e-de0d-0fc5-8c50-50eac832652e
7706c34a-c78b-ce5b-65ee-04653f77675b,32608.0,38.885434,-77.173605,Falls Church City Hall / Park Ave & Little Falls St,Washington D.C.,80b91b2e-de0d-0fc5-8c50-50eac832652e
0c607fe9-a4d5-daf8-9127-bd471e7ce857,32609.0,38.885621,-77.166917,W Columbia St & N Washington St,Washington D.C.,80b91b2e-de0d-0fc5-8c50-50eac832652e
